{"type": "FeatureCollection", "features": [{"type": "Feature", "properties": {"OBJECTID": 1, "ACCOUNT_NO": "NJSTRE1545017647", "DOCKET_NO": "QO19091189", "CAPACITY": 1.43225, "APPLICANT": "AC Power 7 LLC", "EDC": "PSE&G", "ADDRESS": "1680 Delsea Drive", "CITY": "Deptford Township", "COUNTY": "Gloucester", "ZIP": "08096", "STATE": "NJ", "LATITUDE": 39.81605, "LONGITUDE": -75.128154, "ROOFTOP": "N", "GROUNDMOUNT": "Y", "LMI": "Y", "DESCRIPTION": "Sand and Gravel Pit", "PROGRAMYEAR": "Pilot 1", "COMPLETIONYEAR": "2022", "GLOBALID": "{13E14B51-B206-4987-B1CD-F95C48DB52CF}"}, "geometry": {"type": "Point", "coordinates": [-75.12815575148488, 39.81605803938169]}}, {"type": "Feature", "properties": {"OBJECTID": 2, "ACCOUNT_NO": "NJSTRE1545017713", "DOCKET_NO": "QO19091144", "CAPACITY": 0.94568, "APPLICANT": "Hartz Solar LLC", "EDC": "PSE&G", "ADDRESS": "99 Caven Point Road", "CITY": "Jersey City", "COUNTY": "Hudson", "ZIP": "07305", "STATE": "NJ", "LATITUDE": 40.700586, "LONGITUDE": -74.072136, "ROOFTOP": "Y", "GROUNDMOUNT": "N", "LMI": "Y", "DESCRIPTION": "Rooftop", "PROGRAMYEAR": "Pilot 1", "COMPLETIONYEAR": "2021", "GLOBALID": "{16591B74-B08A-454E-A34A-30002CA5EDEE}"}, "geometry": {"type": "Point", "coordinates": [-74.07213746893919, 40.70059425168431]}}, {"type": "Feature", "properties": {"OBJECTID": 3, "ACCOUNT_NO": "NJSTRE1545017717", "DOCKET_NO": "QO19091258", "CAPACITY": 2.67282, "APPLICANT": "Duke Realty ePort Urban Renewal LLC", "EDC": "PSE&G", "ADDRESS": "960 High Street", "CITY": "Perth Amboy City", "COUNTY": "Middlesex", "ZIP": "08861", "STATE": "NJ", "LATITUDE": 40.527817, "LONGITUDE": -74.259762, "ROOFTOP": "Y", "GROUNDMOUNT": "N", "LMI": "Y", "DESCRIPTION": "Rooftop", "PROGRAMYEAR": "Pilot 1", "COMPLETIONYEAR": "2021", "GLOBALID": "{6A69CCFF-F5FC-46E1-AD2D-C7754ECC53C9}"}, "geometry": {"type": "Point", "coordinates": [-74.25976351844399, 40.52782521116034]}}, {"type": "Feature", "properties": {"OBJECTID": 4, "ACCOUNT_NO": "NJSTRE1545017744", "DOCKET_NO": "QO19091253", "CAPACITY": 0.79164, "APPLICANT": "Crystal LLC", "EDC": "PSE&G", "ADDRESS": "1005 Sherman Avenue", "CITY": "Pennsauken Township", "COUNTY": "Camden", "ZIP": "08110", "STATE": "NJ", "LATITUDE": 39.97076, "LONGITUDE": -75.056068, "ROOFTOP": "Y", "GROUNDMOUNT": "N", "LMI": "Y", "DESCRIPTION": "Rooftop", "PROGRAMYEAR": "Pilot 1", "COMPLETIONYEAR": "2021", "GLOBALID": "{9F91AAA6-0DBA-417F-AFE4-2C414E984118}"}, "geometry": {"type": "Point", "coordinates": [-75.05606973800248, 39.970768072742544]}}, {"type": "Feature", "properties": {"OBJECTID": 5, "ACCOUNT_NO": "NJSTRE1545017700", "DOCKET_NO": "QO19091256", "CAPACITY": 3.18904, "APPLICANT": "CSRPM 2900 Woodbridge Avenue LLC", "EDC": "PSE&G", "ADDRESS": "2900 Woodbridge Avenue", "CITY": "Edison Township", "COUNTY": "Middlesex", "ZIP": "08837", "STATE": "NJ", "LATITUDE": 40.515269, "LONGITUDE": -74.354047, "ROOFTOP": "Y", "GROUNDMOUNT": "N", "LMI": "Y", "DESCRIPTION": "Rooftop", "PROGRAMYEAR": "Pilot 1", "COMPLETIONYEAR": "2021", "GLOBALID": "{63095F83-FD75-49C7-B9F8-AE1606752B16}"}, "geometry": {"type": "Point", "coordinates": [-74.35404854778524, 40.515277205360874]}}, {"type": "Feature", "properties": {"OBJECTID": 6, "ACCOUNT_NO": "NJSTRE1545017661", "DOCKET_NO": "QO19091148", "CAPACITY": 4.50198, "APPLICANT": "Linden Hawk Rise Solar LLC", "EDC": "PSE&G", "ADDRESS": "1451 Lower Road", "CITY": "Linden City", "COUNTY": "Union", "ZIP": "07036", "STATE": "NJ", "LATITUDE": 40.602203, "LONGITUDE": -74.246002, "ROOFTOP": "N", "GROUNDMOUNT": "Y", "LMI": "Y", "DESCRIPTION": "Landfill", "PROGRAMYEAR": "Pilot 1", "COMPLETIONYEAR": "2021", "GLOBALID": "{2AB8EC5C-A1D4-45EA-A740-45B1FB64DDF5}"}, "geometry": {"type": "Point", "coordinates": [-74.24600351856378, 40.6022112262602]}}, {"type": "Feature", "properties": {"OBJECTID": 7, "ACCOUNT_NO": "NJSTRE1545017648", "DOCKET_NO": "QO19091259", "CAPACITY": 2.33525, "APPLICANT": "Duke Realty Limiited Partnership", "EDC": "PSE&G", "ADDRESS": "5 Ethel Boulevard", "CITY": "Wood-Ridge Borough", "COUNTY": "Bergen", "ZIP": "07075", "STATE": "NJ", "LATITUDE": 40.838224, "LONGITUDE": -74.077935, "ROOFTOP": "Y", "GROUNDMOUNT": "N", "LMI": "Y", "DESCRIPTION": "Rooftop", "PROGRAMYEAR": "Pilot 1", "COMPLETIONYEAR": "2021", "GLOBALID": "{9A2379D3-19E2-4C68-895E-EF806525F288}"}, "geometry": {"type": "Point", "coordinates": [-74.07793647918692, 40.83823227840463]}}, {"type": "Feature", "properties": {"OBJECTID": 8, "ACCOUNT_NO": "NJSTRE1545017747", "DOCKET_NO": "QO19091262", "CAPACITY": 1.85896, "APPLICANT": "Life in Christ Ministries Inc.", "EDC": "PSE&G", "ADDRESS": "7245 Westfield Avenue", "CITY": "Pennsauken Township", "COUNTY": "Camden", "ZIP": "08110", "STATE": "NJ", "LATITUDE": 39.96969, "LONGITUDE": -75.048121, "ROOFTOP": "Y", "GROUNDMOUNT": "N", "LMI": "Y", "DESCRIPTION": "Rooftop", "PROGRAMYEAR": "Pilot 1", "COMPLETIONYEAR": "2022", "GLOBALID": "{22EF8A82-EE11-46E3-9044-94828F001D5F}"}, "geometry": {"type": "Point", "coordinates": [-75.04812273541953, 39.96969807281496]}}, {"type": "Feature", "properties": {"OBJECTID": 9, "ACCOUNT_NO": "NJSTRE1545017660", "DOCKET_NO": "QO19091188", "CAPACITY": 0.8296, "APPLICANT": "AC Power 8 LLC", "EDC": "PSE&G", "ADDRESS": "Meadow Road", "CITY": "Edison Township", "COUNTY": "Middlesex", "ZIP": "08837", "STATE": "NJ", "LATITUDE": 40.486432, "LONGITUDE": -74.381615, "ROOFTOP": "N", "GROUNDMOUNT": "Y", "LMI": "Y", "DESCRIPTION": "Landfill", "PROGRAMYEAR": "Pilot 1", "COMPLETIONYEAR": "2022", "GLOBALID": "{79EB6CCC-7EA3-4D47-B7CC-96D957DB17EC}"}, "geometry": {"type": "Point", "coordinates": [-74.38161655483088, 40.48644019871336]}}, {"type": "Feature", "properties": {"OBJECTID": 10, "ACCOUNT_NO": "NJSTRE1545017708", "DOCKET_NO": "QO19091261", "CAPACITY": 4.27941, "APPLICANT": "Duke Realty ePort Urban Renewal LLC", "EDC": "PSE&G", "ADDRESS": "1000 High Street", "CITY": "Perth Amboy City", "COUNTY": "Middlesex", "ZIP": "08861", "STATE": "NJ", "LATITUDE": 40.529702, "LONGITUDE": -74.260309, "ROOFTOP": "Y", "GROUNDMOUNT": "N", "LMI": "Y", "DESCRIPTION": "Rooftop", "PROGRAMYEAR": "Pilot 1", "COMPLETIONYEAR": "2021", "GLOBALID": "{81F6FB0F-BF3A-4A3D-A7A4-C7BEDBDD0D3A}"}, "geometry": {"type": "Point", "coordinates": [-74.26031051873287, 40.52971021151169]}}, {"type": "Feature", "properties": {"OBJECTID": 11, "ACCOUNT_NO": "NJSTRE1545017736", "DOCKET_NO": "QO19091254", "CAPACITY": 2.11968, "APPLICANT": "Pelvil Realty LLP", "EDC": "PSE&G", "ADDRESS": "7001 Anpesil Drive", "CITY": "North Bergen Township", "COUNTY": "Hudson", "ZIP": "07047", "STATE": "NJ", "LATITUDE": 40.802052, "LONGITUDE": -74.023621, "ROOFTOP": "Y", "GROUNDMOUNT": "N", "LMI": "Y", "DESCRIPTION": "Rooftop", "PROGRAMYEAR": "Pilot 1", "COMPLETIONYEAR": "2021", "GLOBALID": "{139381A5-A61F-4E73-9CF0-562752B3833D}"}, "geometry": {"type": "Point", "coordinates": [-74.02362245957671, 40.80206027325142]}}, {"type": "Feature", "properties": {"OBJECTID": 12, "ACCOUNT_NO": "NJSTRE1545017709", "DOCKET_NO": "QO19091142", "CAPACITY": 1.33974, "APPLICANT": "Hartz Solar LLC", "EDC": "PSE&G", "ADDRESS": "111 Castle Road", "CITY": "Secaucus Town", "COUNTY": "Hudson", "ZIP": "07094", "STATE": "NJ", "LATITUDE": 40.767926, "LONGITUDE": -74.077603, "ROOFTOP": "Y", "GROUNDMOUNT": "N", "LMI": "Y", "DESCRIPTION": "Rooftop", "PROGRAMYEAR": "Pilot 1", "COMPLETIONYEAR": "2021", "GLOBALID": "{5614FCD9-4635-4EB3-880A-E8693AC7174D}"}, "geometry": {"type": "Point", "coordinates": [-74.07760447478648, 40.76793426467649]}}, {"type": "Feature", "properties": {"OBJECTID": 13, "ACCOUNT_NO": "NJSTRE1545017703", "DOCKET_NO": "QO19091141", "CAPACITY": 1.97721, "APPLICANT": "Hartz Solar LLC", "EDC": "PSE&G", "ADDRESS": "601 Doremus Avenue", "CITY": "Newark City", "COUNTY": "Essex", "ZIP": "07105", "STATE": "NJ", "LATITUDE": 40.716674, "LONGITUDE": -74.132454, "ROOFTOP": "Y", "GROUNDMOUNT": "N", "LMI": "Y", "DESCRIPTION": "Rooftop", "PROGRAMYEAR": "Pilot 1", "COMPLETIONYEAR": "2021", "GLOBALID": "{F5DE8AB4-EBBA-4E37-93D6-0976ADB1C185}"}, "geometry": {"type": "Point", "coordinates": [-74.13245548922107, 40.716682252711415]}}, {"type": "Feature", "properties": {"OBJECTID": 14, "ACCOUNT_NO": "NJSTRE1545017646", "DOCKET_NO": "QO19091246", "CAPACITY": 2.1294, "APPLICANT": "Wall Township - Brownfield", "EDC": "JCP&L", "ADDRESS": "1821 Route 71", "CITY": "Wall Township", "COUNTY": "Monmouth", "ZIP": "07762", "STATE": "NJ", "LATITUDE": 40.168054, "LONGITUDE": -74.03237, "ROOFTOP": "N", "GROUNDMOUNT": "Y", "LMI": "Y", "DESCRIPTION": "Brownfield", "PROGRAMYEAR": "Pilot 1", "COMPLETIONYEAR": "2022", "GLOBALID": "{6B60D225-25A5-4D5B-8ACE-F3287C2BFB2D}"}, "geometry": {"type": "Point", "coordinates": [-74.03237142440209, 40.16806214801166]}}, {"type": "Feature", "properties": {"OBJECTID": 15, "ACCOUNT_NO": "NJSTRE1545017665", "DOCKET_NO": "QO19091124", "CAPACITY": 0.68224, "APPLICANT": "World Apostolate of Fatima", "EDC": "JCP&L", "ADDRESS": "674 Mountain View Road", "CITY": "Franklin Township", "COUNTY": "Warren", "ZIP": "08802", "STATE": "NJ", "LATITUDE": 40.729192, "LONGITUDE": -75.008146, "ROOFTOP": "N", "GROUNDMOUNT": "Y", "LMI": "Y", "DESCRIPTION": "Canopy", "PROGRAMYEAR": "Pilot 1", "COMPLETIONYEAR": "2021", "GLOBALID": "{0730193B-E85C-4007-A34E-C9C8B6A844D3}"}, "geometry": {"type": "Point", "coordinates": [-75.00814776967441, 40.729200223717804]}}, {"type": "Feature", "properties": {"OBJECTID": 16, "ACCOUNT_NO": "NJSTRE1545017664", "DOCKET_NO": "QO19091257", "CAPACITY": 1.65564, "APPLICANT": "Duke Realty Teterboro Urban Renewal LLC", "EDC": "PSE&G", "ADDRESS": "1 Catherine Street", "CITY": "Teterboro Borough", "COUNTY": "Bergen", "ZIP": "07608", "STATE": "NJ", "LATITUDE": 40.859227, "LONGITUDE": -74.065801, "ROOFTOP": "Y", "GROUNDMOUNT": "N", "LMI": "Y", "DESCRIPTION": "Rooftop", "PROGRAMYEAR": "Pilot 1", "COMPLETIONYEAR": "2021", "GLOBALID": "{EAE47F5B-06BD-4A71-8595-4202A83783E3}"}, "geometry": {"type": "Point", "coordinates": [-74.06580247658489, 40.85923528293348]}}, {"type": "Feature", "properties": {"OBJECTID": 17, "ACCOUNT_NO": "NJSTRE1545017651", "DOCKET_NO": "QO19091046", "CAPACITY": 3.09976, "APPLICANT": "AC Power 1 LLC", "EDC": "PSE&G", "ADDRESS": "900 Coopertown Road", "CITY": "Delanco Township", "COUNTY": "Burlington", "ZIP": "08075", "STATE": "NJ", "LATITUDE": 40.049616, "LONGITUDE": -74.935379, "ROOFTOP": "N", "GROUNDMOUNT": "Y", "LMI": "Y", "DESCRIPTION": "Landfill", "PROGRAMYEAR": "Pilot 1", "COMPLETIONYEAR": "2021", "GLOBALID": "{B489AFB4-8ADD-48CB-AB69-17D2DF350AB9}"}, "geometry": {"type": "Point", "coordinates": [-74.93538070451457, 40.049624092715185]}}, {"type": "Feature", "properties": {"OBJECTID": 18, "ACCOUNT_NO": "NJSTRE1545017751", "DOCKET_NO": "QO19091137", "CAPACITY": 1.95089, "APPLICANT": "Hartz Solar LLC", "EDC": "PSE&G", "ADDRESS": "5601 Westside Avenue", "CITY": "North Bergen Township", "COUNTY": "Hudson", "ZIP": "07047", "STATE": "NJ", "LATITUDE": 40.794767, "LONGITUDE": -74.033716, "ROOFTOP": "Y", "GROUNDMOUNT": "N", "LMI": "Y", "DESCRIPTION": "Rooftop", "PROGRAMYEAR": "Pilot 1", "COMPLETIONYEAR": "2021", "GLOBALID": "{C475F876-080C-4D88-BC7F-E7DB0D812BED}"}, "geometry": {"type": "Point", "coordinates": [-74.03371746236674, 40.79477527147171]}}, {"type": "Feature", "properties": {"OBJECTID": 19, "ACCOUNT_NO": "NJSTRE1545017704", "DOCKET_NO": "QO19091119", "CAPACITY": 1.18908, "APPLICANT": "Nexamp Solar LLC", "EDC": "PSE&G", "ADDRESS": "3730 Route 1", "CITY": "South Brunswick Township", "COUNTY": "Middlesex", "ZIP": "08902", "STATE": "NJ", "LATITUDE": 40.42838, "LONGITUDE": -74.517919, "ROOFTOP": "Y", "GROUNDMOUNT": "N", "LMI": "Y", "DESCRIPTION": "Rooftop", "PROGRAMYEAR": "Pilot 1", "COMPLETIONYEAR": "2022", "GLOBALID": "{CC09F4A8-52C9-41F6-A557-24C1DE0CD3D2}"}, "geometry": {"type": "Point", "coordinates": [-74.51792059476941, 40.428388182451734]}}, {"type": "Feature", "properties": {"OBJECTID": 20, "ACCOUNT_NO": "NJSTRE1545017641", "DOCKET_NO": "QO19091248", "CAPACITY": 4.98108, "APPLICANT": "Ocean County Landfill Corp.", "EDC": "JCP&L", "ADDRESS": "2498 Route 70", "CITY": "Manchester Township", "COUNTY": "Ocean", "ZIP": "08759", "STATE": "NJ", "LATITUDE": 40.020972, "LONGITUDE": -74.249135, "ROOFTOP": "N", "GROUNDMOUNT": "Y", "LMI": "Y", "DESCRIPTION": "Landfill", "PROGRAMYEAR": "Pilot 1", "COMPLETIONYEAR": "2022", "GLOBALID": "{8728FF8C-3A0B-47A6-96D4-FBCE03D02BF7}"}, "geometry": {"type": "Point", "coordinates": [-74.24913648478322, 40.0209801112363]}}, {"type": "Feature", "properties": {"OBJECTID": 21, "ACCOUNT_NO": "NJSTRE1548061451", "DOCKET_NO": "QO21020208", "CAPACITY": 0.59064, "APPLICANT": "Brightcore Energy", "EDC": "PSE&G", "ADDRESS": "1256 N. Church Street", "CITY": "Moorestown Township", "COUNTY": "Burlington", "ZIP": "08057", "STATE": "NJ", "LATITUDE": 39.977187, "LONGITUDE": -74.987749, "ROOFTOP": "Y", "GROUNDMOUNT": "N", "LMI": "Y", "DESCRIPTION": "Rooftop", "PROGRAMYEAR": "Pilot 2", "COMPLETIONYEAR": "2023", "GLOBALID": "{5A0CD557-9918-458B-A56F-92D244221B1A}"}, "geometry": {"type": "Point", "coordinates": [-74.9877507167395, 39.97719507646572]}}, {"type": "Feature", "properties": {"OBJECTID": 22, "ACCOUNT_NO": "NJSTRE1548125361", "DOCKET_NO": "QO21020253", "CAPACITY": 0.21072, "APPLICANT": "Hana Associates (Mill One)", "EDC": "PSE&G", "ADDRESS": "1 N Johnston Avenue", "CITY": "Hamilton Township", "COUNTY": "Mercer", "ZIP": "08609", "STATE": "NJ", "LATITUDE": 40.232685, "LONGITUDE": -74.734343, "ROOFTOP": "Y", "GROUNDMOUNT": "N", "LMI": "Y", "DESCRIPTION": "Rooftop", "PROGRAMYEAR": "Pilot 2", "COMPLETIONYEAR": "2023", "GLOBALID": "{6454AAFD-7F58-4CFD-AD6C-90F078D9C1EF}"}, "geometry": {"type": "Point", "coordinates": [-74.73434465176918, 40.23269313614126]}}, {"type": "Feature", "properties": {"OBJECTID": 23, "ACCOUNT_NO": "NJSTRE1548083987", "DOCKET_NO": "QO21020376", "CAPACITY": 0.26891, "APPLICANT": "Solar Landscape", "EDC": "JCP&L", "ADDRESS": "30 Park Road", "CITY": "Tinton Falls Borough", "COUNTY": "Monmouth", "ZIP": "07724", "STATE": "NJ", "LATITUDE": 40.287333, "LONGITUDE": -74.080398, "ROOFTOP": "Y", "GROUNDMOUNT": "N", "LMI": "Y", "DESCRIPTION": "Rooftop", "PROGRAMYEAR": "Pilot 2", "COMPLETIONYEAR": "2023", "GLOBALID": "{E9314022-C76A-4D1F-AA50-9419C341A246}"}, "geometry": {"type": "Point", "coordinates": [-74.08039944676922, 40.287341169996196]}}, {"type": "Feature", "properties": {"OBJECTID": 24, "ACCOUNT_NO": "NJSTRE1548042307", "DOCKET_NO": "QO21020181", "CAPACITY": 0.99893, "APPLICANT": "Independence Solar", "EDC": "PSE&G", "ADDRESS": "1650 Sherman Ave", "CITY": "Pennsauken Township", "COUNTY": "Camden", "ZIP": "08110", "STATE": "NJ", "LATITUDE": 39.969318, "LONGITUDE": -75.051231, "ROOFTOP": "Y", "GROUNDMOUNT": "N", "LMI": "Y", "DESCRIPTION": "Rooftop", "PROGRAMYEAR": "Pilot 2", "COMPLETIONYEAR": "2023", "GLOBALID": "{54AE5196-D9C6-4B37-8E8F-34E2640C05A3}"}, "geometry": {"type": "Point", "coordinates": [-75.05123273638247, 39.969326072629514]}}, {"type": "Feature", "properties": {"OBJECTID": 25, "ACCOUNT_NO": "NJSTRE1548061613", "DOCKET_NO": "QO21020209", "CAPACITY": 0.36616, "APPLICANT": "Brightcore Energy", "EDC": "PSE&G", "ADDRESS": "1507 Lancer Drive", "CITY": "Moorestown Township", "COUNTY": "Burlington", "ZIP": "08057", "STATE": "NJ", "LATITUDE": 39.974166, "LONGITUDE": -74.991259, "ROOFTOP": "Y", "GROUNDMOUNT": "N", "LMI": "Y", "DESCRIPTION": "Rooftop", "PROGRAMYEAR": "Pilot 2", "COMPLETIONYEAR": "2023", "GLOBALID": "{01E11C31-E057-49EC-9247-84413F5D2DD7}"}, "geometry": {"type": "Point", "coordinates": [-74.99126071766952, 39.97417407574006]}}, {"type": "Feature", "properties": {"OBJECTID": 26, "ACCOUNT_NO": "NJSTRE1548099632", "DOCKET_NO": "QO21020513", "CAPACITY": 4.99954, "APPLICANT": "Solar Landscape", "EDC": "JCP&L", "ADDRESS": "1 Costco Dr", "CITY": "Monroe Township", "COUNTY": "Middlesex", "ZIP": "08831", "STATE": "NJ", "LATITUDE": 40.361297, "LONGITUDE": -74.462172, "ROOFTOP": "Y", "GROUNDMOUNT": "N", "LMI": "Y", "DESCRIPTION": "Rooftop", "PROGRAMYEAR": "Pilot 2", "COMPLETIONYEAR": "2023", "GLOBALID": "{0CD8DF43-0C7C-4680-9112-642A66EDCCBF}"}, "geometry": {"type": "Point", "coordinates": [-74.46217357293102, 40.361305171209175]}}, {"type": "Feature", "properties": {"OBJECTID": 27, "ACCOUNT_NO": "NJSTRE1548093010", "DOCKET_NO": "QO21020553", "CAPACITY": 0.40158, "APPLICANT": "Solar Landscape", "EDC": "PSE&G", "ADDRESS": "552 Grand Ave", "CITY": "Ridgefield Borough", "COUNTY": "Burlington", "ZIP": "07657", "STATE": "NJ", "LATITUDE": 40.835486, "LONGITUDE": -74.010132, "ROOFTOP": "Y", "GROUNDMOUNT": "N", "LMI": "Y", "DESCRIPTION": "Rooftop", "PROGRAMYEAR": "Pilot 2", "COMPLETIONYEAR": "2023", "GLOBALID": "{F0C80349-BEA9-4838-A500-084EEB88643D}"}, "geometry": {"type": "Point", "coordinates": [-74.01013345729362, 40.83549428026013]}}, {"type": "Feature", "properties": {"OBJECTID": 28, "ACCOUNT_NO": "NJSTRE1548061603", "DOCKET_NO": "QO21020201", "CAPACITY": 0.24196, "APPLICANT": "Brightcore Energy", "EDC": "PSE&G", "ADDRESS": "50 Twosome Drive", "CITY": "Moorestown Township", "COUNTY": "Burlington", "ZIP": "08057", "STATE": "NJ", "LATITUDE": 39.975468, "LONGITUDE": -74.979119, "ROOFTOP": "Y", "GROUNDMOUNT": "N", "LMI": "Y", "DESCRIPTION": "Rooftop", "PROGRAMYEAR": "Pilot 2", "COMPLETIONYEAR": "2023", "GLOBALID": "{14FA4F05-D1AF-448A-A6B4-0CFCCD83F2D4}"}, "geometry": {"type": "Point", "coordinates": [-74.97912071390006, 39.97547607643288]}}, {"type": "Feature", "properties": {"OBJECTID": 29, "ACCOUNT_NO": "NJSTRE1547990289", "DOCKET_NO": "QO21020220", "CAPACITY": 0.75992, "APPLICANT": "Altus Power", "EDC": "PSE&G", "ADDRESS": "560 Jefferson Ave", "CITY": "Secaucus Town", "COUNTY": "Hudson", "ZIP": "07094", "STATE": "NJ", "LATITUDE": 40.775486, "LONGITUDE": -74.066839, "ROOFTOP": "Y", "GROUNDMOUNT": "N", "LMI": "Y", "DESCRIPTION": "Rooftop", "PROGRAMYEAR": "Pilot 2", "COMPLETIONYEAR": "2023", "GLOBALID": "{1F4203B1-3A67-4A6D-9A7F-110C105ABB23}"}, "geometry": {"type": "Point", "coordinates": [-74.0668404718005, 40.775494266534544]}}, {"type": "Feature", "properties": {"OBJECTID": 30, "ACCOUNT_NO": "NJSTRE1548091079", "DOCKET_NO": "QO21020242", "CAPACITY": 4.9842, "APPLICANT": "EDF Renewables Distributed Solutions, Inc.", "EDC": "JCP&L", "ADDRESS": "227 Oak Ridge Parkway", "CITY": "Toms River Township", "COUNTY": "Ocean", "ZIP": "08755", "STATE": "NJ", "LATITUDE": 39.987808, "LONGITUDE": -74.236458, "ROOFTOP": "N", "GROUNDMOUNT": "Y", "LMI": "Y", "DESCRIPTION": "Brownfield", "PROGRAMYEAR": "Pilot 2", "COMPLETIONYEAR": "2023", "GLOBALID": "{04BF8CB2-D3FA-43A2-98CE-841608D2A817}"}, "geometry": {"type": "Point", "coordinates": [-74.2364594788001, 39.98781610507041]}}, {"type": "Feature", "properties": {"OBJECTID": 31, "ACCOUNT_NO": "NJSTRE1548065877", "DOCKET_NO": "QO21020595", "CAPACITY": 0.64152, "APPLICANT": "Solar Landscape", "EDC": "PSE&G", "ADDRESS": "501 Penhorn Ave", "CITY": "Secaucus Town", "COUNTY": "Hudson", "ZIP": "07094", "STATE": "NJ", "LATITUDE": 40.766036, "LONGITUDE": -74.061623, "ROOFTOP": "Y", "GROUNDMOUNT": "N", "LMI": "Y", "DESCRIPTION": "Rooftop", "PROGRAMYEAR": "Pilot 2", "COMPLETIONYEAR": "2023", "GLOBALID": "{5C05528D-58B3-4A4E-8A16-6CD362106F16}"}, "geometry": {"type": "Point", "coordinates": [-74.06162446955423, 40.76604426486966]}}, {"type": "Feature", "properties": {"OBJECTID": 32, "ACCOUNT_NO": "NJSTRE1548126024", "DOCKET_NO": "QO21020551", "CAPACITY": 0.6219, "APPLICANT": "Moorestown Solar 2, LLC", "EDC": "PSE&G", "ADDRESS": "600 Glenn Court", "CITY": "Moorestown Township", "COUNTY": "Burlington", "ZIP": "08057", "STATE": "NJ", "LATITUDE": 39.963855, "LONGITUDE": -74.97071, "ROOFTOP": "Y", "GROUNDMOUNT": "N", "LMI": "Y", "DESCRIPTION": "Rooftop", "PROGRAMYEAR": "Pilot 2", "COMPLETIONYEAR": "2023", "GLOBALID": "{DAA6F922-A24F-4CBE-8C0D-47FB1D9FC4C3}"}, "geometry": {"type": "Point", "coordinates": [-74.97071171053337, 39.963863074426115]}}, {"type": "Feature", "properties": {"OBJECTID": 33, "ACCOUNT_NO": "NJSTRE1548035554", "DOCKET_NO": "QO21020266", "CAPACITY": 2.78681, "APPLICANT": "AC Power", "EDC": "JCP&L", "ADDRESS": "1 Global Access Road", "CITY": "Old Bridge Township", "COUNTY": "Middlesex", "ZIP": "08859", "STATE": "NJ", "LATITUDE": 40.445974, "LONGITUDE": -74.283717, "ROOFTOP": "N", "GROUNDMOUNT": "Y", "LMI": "Y", "DESCRIPTION": "Landfill", "PROGRAMYEAR": "Pilot 2", "COMPLETIONYEAR": "2023", "GLOBALID": "{6FF53B00-BE02-49DB-ACED-8DE2EC9D3CEA}"}, "geometry": {"type": "Point", "coordinates": [-74.2837185211412, 40.44598219420664]}}, {"type": "Feature", "properties": {"OBJECTID": 34, "ACCOUNT_NO": "NJSTRE1548084123", "DOCKET_NO": "QO21020507", "CAPACITY": 0.79989, "APPLICANT": "Solar Landscape", "EDC": "JCP&L", "ADDRESS": "1110 Highway 36", "CITY": "Hazlet Township", "COUNTY": "Monmouth", "ZIP": "07730", "STATE": "NJ", "LATITUDE": 40.43352, "LONGITUDE": -74.179176, "ROOFTOP": "Y", "GROUNDMOUNT": "N", "LMI": "Y", "DESCRIPTION": "Rooftop", "PROGRAMYEAR": "Pilot 2", "COMPLETIONYEAR": "2023", "GLOBALID": "{718CE78D-1062-4323-8396-792581D75E2F}"}, "geometry": {"type": "Point", "coordinates": [-74.17917748702317, 40.4335281954277]}}, {"type": "Feature", "properties": {"OBJECTID": 35, "ACCOUNT_NO": "NJSTRE1548061022", "DOCKET_NO": "QO21020204", "CAPACITY": 0.25484, "APPLICANT": "Brightcore Energy", "EDC": "PSE&G", "ADDRESS": "201 Commerce Drive", "CITY": "Moorestown Township", "COUNTY": "Burlington", "ZIP": "08057", "STATE": "NJ", "LATITUDE": 39.97006, "LONGITUDE": -74.985137, "ROOFTOP": "Y", "GROUNDMOUNT": "N", "LMI": "Y", "DESCRIPTION": "Rooftop", "PROGRAMYEAR": "Pilot 2", "COMPLETIONYEAR": "2023", "GLOBALID": "{89995F5A-3ACE-44CD-8EF9-71995D47572E}"}, "geometry": {"type": "Point", "coordinates": [-74.98513871548096, 39.97006807514331]}}, {"type": "Feature", "properties": {"OBJECTID": 36, "ACCOUNT_NO": "NJSTRE1548060360", "DOCKET_NO": "QO21020197", "CAPACITY": 0.51336, "APPLICANT": "Brightcore Energy", "EDC": "PSE&G", "ADDRESS": "101 Commerce Drive", "CITY": "Moorestown Township", "COUNTY": "Burlington", "ZIP": "08057", "STATE": "NJ", "LATITUDE": 39.969469, "LONGITUDE": -74.986372, "ROOFTOP": "Y", "GROUNDMOUNT": "N", "LMI": "Y", "DESCRIPTION": "Rooftop", "PROGRAMYEAR": "Pilot 2", "COMPLETIONYEAR": "2023", "GLOBALID": "{F36A0A59-82AF-4995-869B-9BCEF7A0605F}"}, "geometry": {"type": "Point", "coordinates": [-74.98637371583675, 39.96947707498174]}}, {"type": "Feature", "properties": {"OBJECTID": 37, "ACCOUNT_NO": "NJSTRE1547960487", "DOCKET_NO": "QO21020439", "CAPACITY": 4.99, "APPLICANT": "Hathaway Solar, LLC", "EDC": "JCP&L", "ADDRESS": "630 Pinewald Keswick Road", "CITY": "Berkeley Township", "COUNTY": "Ocean", "ZIP": "08722", "STATE": "NJ", "LATITUDE": 39.905461, "LONGITUDE": -74.226631, "ROOFTOP": "N", "GROUNDMOUNT": "Y", "LMI": "Y", "DESCRIPTION": "Landfill", "PROGRAMYEAR": "Pilot 2", "COMPLETIONYEAR": "2024", "GLOBALID": "{D967B2B3-69C8-4473-9917-3FA6A463A0D8}"}, "geometry": {"type": "Point", "coordinates": [-74.22663247085053, 39.90546908898282]}}, {"type": "Feature", "properties": {"OBJECTID": 38, "ACCOUNT_NO": "NJSTRE1548061469", "DOCKET_NO": "QO21020203", "CAPACITY": 0.34684, "APPLICANT": "Brightcore Energy", "EDC": "PSE&G", "ADDRESS": "225 Executive Drive", "CITY": "Moorestown Township", "COUNTY": "Burlington", "ZIP": "08057", "STATE": "NJ", "LATITUDE": 39.973735, "LONGITUDE": -74.986998, "ROOFTOP": "Y", "GROUNDMOUNT": "N", "LMI": "Y", "DESCRIPTION": "Rooftop", "PROGRAMYEAR": "Pilot 2", "COMPLETIONYEAR": "2023", "GLOBALID": "{17024087-9DC1-4952-AC3A-9EE20226AAB6}"}, "geometry": {"type": "Point", "coordinates": [-74.98699971629289, 39.97374307580684]}}, {"type": "Feature", "properties": {"OBJECTID": 39, "ACCOUNT_NO": "NJSTRE1548042333", "DOCKET_NO": "QO21020180", "CAPACITY": 0.95498, "APPLICANT": "Independence Solar", "EDC": "PSE&G", "ADDRESS": "8290 National Highway", "CITY": "Pennsauken Township", "COUNTY": "Camden", "ZIP": "08110", "STATE": "NJ", "LATITUDE": 39.98193, "LONGITUDE": -75.031898, "ROOFTOP": "Y", "GROUNDMOUNT": "N", "LMI": "Y", "DESCRIPTION": "Rooftop", "PROGRAMYEAR": "Pilot 2", "COMPLETIONYEAR": "2023", "GLOBALID": "{C045AA2C-2692-4753-B51C-D9AA43F3D6A8}"}, "geometry": {"type": "Point", "coordinates": [-75.0318997310196, 39.98193807582704]}}, {"type": "Feature", "properties": {"OBJECTID": 40, "ACCOUNT_NO": "NJSTRE1548061640", "DOCKET_NO": "QO21020202", "CAPACITY": 0.44712, "APPLICANT": "Brightcore Energy", "EDC": "PSE&G", "ADDRESS": "97 Foster Rd", "CITY": "Moorestown Township", "COUNTY": "Burlington", "ZIP": "08057", "STATE": "NJ", "LATITUDE": 39.976777, "LONGITUDE": -74.990014, "ROOFTOP": "Y", "GROUNDMOUNT": "N", "LMI": "Y", "DESCRIPTION": "Rooftop", "PROGRAMYEAR": "Pilot 2", "COMPLETIONYEAR": "2023", "GLOBALID": "{9EE9904B-F485-4BB6-8F17-92179051DF0C}"}, "geometry": {"type": "Point", "coordinates": [-74.99001571743271, 39.97678507630323]}}, {"type": "Feature", "properties": {"OBJECTID": 41, "ACCOUNT_NO": "NJSTRE1548065897", "DOCKET_NO": "QO21020592", "CAPACITY": 0.26163, "APPLICANT": "Solar Landscape", "EDC": "PSE&G", "ADDRESS": "601 Penhorn Ave", "CITY": "Secaucus Town", "COUNTY": "Hudson", "ZIP": "07094", "STATE": "NJ", "LATITUDE": 40.765378, "LONGITUDE": -74.061573, "ROOFTOP": "Y", "GROUNDMOUNT": "N", "LMI": "Y", "DESCRIPTION": "Rooftop", "PROGRAMYEAR": "Pilot 2", "COMPLETIONYEAR": "2023", "GLOBALID": "{1547AB3B-C7A0-45FB-9926-EB4466E3DE38}"}, "geometry": {"type": "Point", "coordinates": [-74.06157446949815, 40.76538626474269]}}, {"type": "Feature", "properties": {"OBJECTID": 42, "ACCOUNT_NO": "NJSTRE1548091000", "DOCKET_NO": "QO21020596", "CAPACITY": 0.68978, "APPLICANT": "Solar Landscape", "EDC": "PSE&G", "ADDRESS": "55 Jiffy Road", "CITY": "Franklin Township", "COUNTY": "Somerset", "ZIP": "08873", "STATE": "NJ", "LATITUDE": 40.486424, "LONGITUDE": -74.515702, "ROOFTOP": "Y", "GROUNDMOUNT": "N", "LMI": "Y", "DESCRIPTION": "Rooftop", "PROGRAMYEAR": "Pilot 2", "COMPLETIONYEAR": "2023", "GLOBALID": "{839B222D-1754-43FE-BC1F-FCA4B961E944}"}, "geometry": {"type": "Point", "coordinates": [-74.51570359760193, 40.48643219395041]}}, {"type": "Feature", "properties": {"OBJECTID": 43, "ACCOUNT_NO": "NJSTRE1548082920", "DOCKET_NO": "QO21020226", "CAPACITY": 0.53645, "APPLICANT": "Solar Landscape", "EDC": "JCP&L", "ADDRESS": "1695 Oak Street", "CITY": "Lakewood Township", "COUNTY": "Ocean", "ZIP": "08701", "STATE": "NJ", "LATITUDE": 40.060226, "LONGITUDE": -74.187504, "ROOFTOP": "Y", "GROUNDMOUNT": "N", "LMI": "Y", "DESCRIPTION": "Rooftop", "PROGRAMYEAR": "Pilot 2", "COMPLETIONYEAR": "2023", "GLOBALID": "{251862A8-B9F0-4B45-B380-14A9002E16B5}"}, "geometry": {"type": "Point", "coordinates": [-74.18750546747937, 40.06023412119337]}}, {"type": "Feature", "properties": {"OBJECTID": 44, "ACCOUNT_NO": "NJSTRE1548072606", "DOCKET_NO": "QO21020509", "CAPACITY": 1.70976, "APPLICANT": "Solar Landscape", "EDC": "PSE&G", "ADDRESS": "777 Lehigh Avenue", "CITY": "Union Township", "COUNTY": "Union", "ZIP": "07083", "STATE": "NJ", "LATITUDE": 40.679863, "LONGITUDE": -74.24624, "ROOFTOP": "Y", "GROUNDMOUNT": "N", "LMI": "Y", "DESCRIPTION": "Rooftop", "PROGRAMYEAR": "Pilot 2", "COMPLETIONYEAR": "2023", "GLOBALID": "{EA6AE55F-319E-4716-B594-9F225381BAE1}"}, "geometry": {"type": "Point", "coordinates": [-74.246241523373, 40.67987124148052]}}, {"type": "Feature", "properties": {"OBJECTID": 45, "ACCOUNT_NO": "NJSTRE1548042276", "DOCKET_NO": "QO21020187", "CAPACITY": 1.65885, "APPLICANT": "Independence Solar", "EDC": "PSE&G", "ADDRESS": "905 N. Lenola Road", "CITY": "Moorestown Township", "COUNTY": "Burlington", "ZIP": "08057", "STATE": "NJ", "LATITUDE": 39.972758, "LONGITUDE": -74.992367, "ROOFTOP": "Y", "GROUNDMOUNT": "N", "LMI": "Y", "DESCRIPTION": "Rooftop", "PROGRAMYEAR": "Pilot 2", "COMPLETIONYEAR": "2023", "GLOBALID": "{5E59B3ED-514F-47D6-BB26-4FE3BD2411E2}"}, "geometry": {"type": "Point", "coordinates": [-74.99236871793563, 39.97276607542071]}}, {"type": "Feature", "properties": {"OBJECTID": 46, "ACCOUNT_NO": "NJSTRE1547937424\u00a0", "DOCKET_NO": "QO21020437", "CAPACITY": 4.99, "APPLICANT": "Hathaway Solar, LLC", "EDC": "JCP&L", "ADDRESS": "630 Pinewald Keswick Road", "CITY": "Berkeley Township", "COUNTY": "Ocean", "ZIP": "08722", "STATE": "NJ", "LATITUDE": 39.906975, "LONGITUDE": -74.227624, "ROOFTOP": "N", "GROUNDMOUNT": "Y", "LMI": "Y", "DESCRIPTION": "Landfill", "PROGRAMYEAR": "Pilot 2", "COMPLETIONYEAR": "2024", "GLOBALID": "{21E196CE-9AE4-4BB9-864E-B632E33C6746}"}, "geometry": {"type": "Point", "coordinates": [-74.2276254712547, 39.90698308925078]}}, {"type": "Feature", "properties": {"OBJECTID": 47, "ACCOUNT_NO": "NJSTRE1548090954", "DOCKET_NO": "QO21020473", "CAPACITY": 0.69741, "APPLICANT": "Solar Landscape", "EDC": "PSE&G", "ADDRESS": "303 Ridge Road", "CITY": "South Brunswick Township", "COUNTY": "Middlesex", "ZIP": "08810", "STATE": "NJ", "LATITUDE": 40.371921, "LONGITUDE": -74.494061, "ROOFTOP": "Y", "GROUNDMOUNT": "N", "LMI": "Y", "DESCRIPTION": "Rooftop", "PROGRAMYEAR": "Pilot 2", "COMPLETIONYEAR": "2023", "GLOBALID": "{B071C13B-84FF-4509-A182-CB38E21E9563}"}, "geometry": {"type": "Point", "coordinates": [-74.49406258373604, 40.371929172174404]}}, {"type": "Feature", "properties": {"OBJECTID": 48, "ACCOUNT_NO": "NJSTRE1548126150", "DOCKET_NO": "QO21020542", "CAPACITY": 3.70935, "APPLICANT": "Franklin Solar 1, LLC", "EDC": "PSE&G", "ADDRESS": "13 Jensen Drive", "CITY": "Franklin Township", "COUNTY": "Somerset", "ZIP": "08873", "STATE": "NJ", "LATITUDE": 40.526099, "LONGITUDE": -74.55887, "ROOFTOP": "Y", "GROUNDMOUNT": "N", "LMI": "Y", "DESCRIPTION": "Rooftop", "PROGRAMYEAR": "Pilot 2", "COMPLETIONYEAR": "2023", "GLOBALID": "{7F17CA83-2A7D-457F-AB3A-7A161AE28A0B}"}, "geometry": {"type": "Point", "coordinates": [-74.55887161379607, 40.52610720020696]}}, {"type": "Feature", "properties": {"OBJECTID": 49, "ACCOUNT_NO": "NJSTRE1548092942", "DOCKET_NO": "QO21020561", "CAPACITY": 0.27255, "APPLICANT": "Solar Landscape", "EDC": "PSE&G", "ADDRESS": "1234 NJ Route 46", "CITY": "Clifton City", "COUNTY": "Passaic", "ZIP": "07013", "STATE": "NJ", "LATITUDE": 40.871147, "LONGITUDE": -74.187546, "ROOFTOP": "Y", "GROUNDMOUNT": "N", "LMI": "Y", "DESCRIPTION": "Rooftop", "PROGRAMYEAR": "Pilot 2", "COMPLETIONYEAR": "2023", "GLOBALID": "{37A49384-0020-4A10-A6C2-99E8F94914C6}"}, "geometry": {"type": "Point", "coordinates": [-74.1875475163218, 40.87115528094954]}}, {"type": "Feature", "properties": {"OBJECTID": 50, "ACCOUNT_NO": "NJSTRE1548092812", "DOCKET_NO": "QO21020524", "CAPACITY": 1.08864, "APPLICANT": "Solar Landscape", "EDC": "PSE&G", "ADDRESS": "116 Gaither Drive", "CITY": "Mount Laurel Township", "COUNTY": "Burlington", "ZIP": "08054", "STATE": "NJ", "LATITUDE": 39.937335, "LONGITUDE": -74.947709, "ROOFTOP": "Y", "GROUNDMOUNT": "N", "LMI": "Y", "DESCRIPTION": "Rooftop", "PROGRAMYEAR": "Pilot 2", "COMPLETIONYEAR": "2023", "GLOBALID": "{59750345-BB84-44DF-AA2E-6E01250FF4DF}"}, "geometry": {"type": "Point", "coordinates": [-74.94771070164434, 39.937343069975334]}}, {"type": "Feature", "properties": {"OBJECTID": 51, "ACCOUNT_NO": "NJSTRE1548093089", "DOCKET_NO": "QO21020518", "CAPACITY": 0.66177, "APPLICANT": "Solar Landscape", "EDC": "PSE&G", "ADDRESS": "601 Delran Pkwy", "CITY": "Delran Township", "COUNTY": "Burlington", "ZIP": "08075", "STATE": "NJ", "LATITUDE": 40.01414, "LONGITUDE": -74.967954, "ROOFTOP": "Y", "GROUNDMOUNT": "N", "LMI": "Y", "DESCRIPTION": "Rooftop", "PROGRAMYEAR": "Pilot 2", "COMPLETIONYEAR": "2022", "GLOBALID": "{6FC0FEB5-F3A3-405D-A232-00F04576C5DE}"}, "geometry": {"type": "Point", "coordinates": [-74.96795571269848, 40.0141480845111]}}, {"type": "Feature", "properties": {"OBJECTID": 52, "ACCOUNT_NO": "NJSTRE1548084081", "DOCKET_NO": "QO21020231", "CAPACITY": 1.1097, "APPLICANT": "Solar Landscape", "EDC": "PSE&G", "ADDRESS": "1101 Corporate Road", "CITY": "North Brunswick Township", "COUNTY": "Middlesex", "ZIP": "08902", "STATE": "NJ", "LATITUDE": 40.461589, "LONGITUDE": -74.488015, "ROOFTOP": "Y", "GROUNDMOUNT": "N", "LMI": "Y", "DESCRIPTION": "Rooftop", "PROGRAMYEAR": "Pilot 2", "COMPLETIONYEAR": "2023", "GLOBALID": "{55847C11-D41A-452B-97EE-90246CAEC148}"}, "geometry": {"type": "Point", "coordinates": [-74.48801658725836, 40.46159719005076]}}, {"type": "Feature", "properties": {"OBJECTID": 53, "ACCOUNT_NO": "NJSTRE1548126027", "DOCKET_NO": "QO21020555", "CAPACITY": 1.59705, "APPLICANT": "Mayhill Solar", "EDC": "PSE&G", "ADDRESS": "301 Mayhill Avenue", "CITY": "Saddle Brook Township", "COUNTY": "Morris", "ZIP": "07663", "STATE": "NJ", "LATITUDE": 40.902003, "LONGITUDE": -74.093411, "ROOFTOP": "Y", "GROUNDMOUNT": "N", "LMI": "Y", "DESCRIPTION": "Rooftop", "PROGRAMYEAR": "Pilot 2", "COMPLETIONYEAR": "2023", "GLOBALID": "{7FB3EA20-CFF8-4BD4-8329-068832734F10}"}, "geometry": {"type": "Point", "coordinates": [-74.09341248805804, 40.9020112903018]}}, {"type": "Feature", "properties": {"OBJECTID": 54, "ACCOUNT_NO": "NJSTRE1548060387", "DOCKET_NO": "QO21020206", "CAPACITY": 0.21436, "APPLICANT": "Brightcore Energy", "EDC": "PSE&G", "ADDRESS": "102 Commerce Drive", "CITY": "Moorestown Township", "COUNTY": "Burlington", "ZIP": "08057", "STATE": "NJ", "LATITUDE": 39.968172, "LONGITUDE": -74.984538, "ROOFTOP": "Y", "GROUNDMOUNT": "N", "LMI": "Y", "DESCRIPTION": "Rooftop", "PROGRAMYEAR": "Pilot 2", "COMPLETIONYEAR": "2023", "GLOBALID": "{B038E4AC-EBD3-45C4-995F-0B7FCBE9051E}"}, "geometry": {"type": "Point", "coordinates": [-74.98453971517706, 39.96818007478964]}}, {"type": "Feature", "properties": {"OBJECTID": 55, "ACCOUNT_NO": "NJSTRE1548061637", "DOCKET_NO": "QO21020207", "CAPACITY": 0.45356, "APPLICANT": "Brightcore Energy", "EDC": "PSE&G", "ADDRESS": "915 N Lenola Road", "CITY": "Moorestown Township", "COUNTY": "Burlington", "ZIP": "08057", "STATE": "NJ", "LATITUDE": 39.973425, "LONGITUDE": -74.994012, "ROOFTOP": "Y", "GROUNDMOUNT": "N", "LMI": "Y", "DESCRIPTION": "Rooftop", "PROGRAMYEAR": "Pilot 2", "COMPLETIONYEAR": "2023", "GLOBALID": "{31567C65-792F-4D73-91C0-CBEE77B899C9}"}, "geometry": {"type": "Point", "coordinates": [-74.99401371849734, 39.97343307549439]}}, {"type": "Feature", "properties": {"OBJECTID": 56, "ACCOUNT_NO": "NJSTRE1548091109", "DOCKET_NO": "QO21020291", "CAPACITY": 0.55596, "APPLICANT": "Solar Landscape", "EDC": "PSE&G", "ADDRESS": "535 Secaucus Road", "CITY": "Secaucus Town", "COUNTY": "Hudson", "ZIP": "07094", "STATE": "NJ", "LATITUDE": 40.776537, "LONGITUDE": -74.065236, "ROOFTOP": "Y", "GROUNDMOUNT": "N", "LMI": "Y", "DESCRIPTION": "Rooftop", "PROGRAMYEAR": "Pilot 2", "COMPLETIONYEAR": "2023", "GLOBALID": "{654A5643-3288-4926-9347-E83D594CBB29}"}, "geometry": {"type": "Point", "coordinates": [-74.06523747135121, 40.77654526679661]}}, {"type": "Feature", "properties": {"OBJECTID": 57, "ACCOUNT_NO": "NJSTRE1548091143", "DOCKET_NO": "QO21020224", "CAPACITY": 0.51552, "APPLICANT": "Solar Landscape", "EDC": "JCP&L", "ADDRESS": "1705 Oak Street", "CITY": "Lakewood Township", "COUNTY": "Ocean", "ZIP": "08701", "STATE": "NJ", "LATITUDE": 40.060071, "LONGITUDE": -74.186589, "ROOFTOP": "Y", "GROUNDMOUNT": "N", "LMI": "Y", "DESCRIPTION": "Rooftop", "PROGRAMYEAR": "Pilot 2", "COMPLETIONYEAR": "2023", "GLOBALID": "{6E3335AB-B688-40E2-A8B2-94A28BED1203}"}, "geometry": {"type": "Point", "coordinates": [-74.18659046717897, 40.060079121194335]}}, {"type": "Feature", "properties": {"OBJECTID": 58, "ACCOUNT_NO": "NJSTRE1548084015", "DOCKET_NO": "QO21020400", "CAPACITY": 3.91632, "APPLICANT": "The City of Hoboken", "EDC": "PSE&G", "ADDRESS": "201 Bay Avenue", "CITY": "Elizabeth City", "COUNTY": "Union", "ZIP": "07201", "STATE": "NJ", "LATITUDE": 40.679888, "LONGITUDE": -74.164323, "ROOFTOP": "Y", "GROUNDMOUNT": "N", "LMI": "Y", "DESCRIPTION": "Rooftop", "PROGRAMYEAR": "Pilot 2", "COMPLETIONYEAR": "2023", "GLOBALID": "{F77A74AB-A916-4217-BCD8-7FF5ACADA22C}"}, "geometry": {"type": "Point", "coordinates": [-74.16432449717682, 40.67989624438052]}}, {"type": "Feature", "properties": {"OBJECTID": 59, "ACCOUNT_NO": "NJSTRE1548042355", "DOCKET_NO": "QO21020183", "CAPACITY": 0.76973, "APPLICANT": "Independence Solar", "EDC": "PSE&G", "ADDRESS": "875 Sherman Avenue", "CITY": "Pennsauken Township", "COUNTY": "Camden", "ZIP": "08110", "STATE": "NJ", "LATITUDE": 39.971918, "LONGITUDE": -75.05788, "ROOFTOP": "Y", "GROUNDMOUNT": "N", "LMI": "Y", "DESCRIPTION": "Rooftop", "PROGRAMYEAR": "Pilot 2", "COMPLETIONYEAR": "2023", "GLOBALID": "{D21671EE-96A9-4BCA-8306-67A92BEC65DD}"}, "geometry": {"type": "Point", "coordinates": [-75.05788173864681, 39.971926072907486]}}, {"type": "Feature", "properties": {"OBJECTID": 60, "ACCOUNT_NO": "NJSTRE1548096154", "DOCKET_NO": "QO21020558", "CAPACITY": 1.2672, "APPLICANT": "Somers Solar, LLC", "EDC": "PSE&G", "ADDRESS": "17 & 20 Veronica Avenue", "CITY": "Franklin Township", "COUNTY": "Somerset", "ZIP": "08873", "STATE": "NJ", "LATITUDE": 40.484438, "LONGITUDE": -74.506639, "ROOFTOP": "Y", "GROUNDMOUNT": "N", "LMI": "Y", "DESCRIPTION": "Rooftop", "PROGRAMYEAR": "Pilot 2", "COMPLETIONYEAR": "2023", "GLOBALID": "{CF63CA61-74AF-4683-A6ED-EC26E46EAF3E}"}, "geometry": {"type": "Point", "coordinates": [-74.50664059459058, 40.48444619388255]}}, {"type": "Feature", "properties": {"OBJECTID": 61, "ACCOUNT_NO": "NJSTRE1548083059", "DOCKET_NO": "QO21020435", "CAPACITY": 2.00448, "APPLICANT": "Pittsgrove Township", "EDC": "ACE", "ADDRESS": "1050 Porchtown Road", "CITY": "Pittsgrove Township", "COUNTY": "Salem", "ZIP": "08318", "STATE": "NJ", "LATITUDE": 39.537914, "LONGITUDE": -75.155267, "ROOFTOP": "N", "GROUNDMOUNT": "Y", "LMI": "Y", "DESCRIPTION": "Landfill", "PROGRAMYEAR": "Pilot 2", "COMPLETIONYEAR": "2023", "GLOBALID": "{8601C5E2-EFD3-4C5B-9356-87F4DC688597}"}, "geometry": {"type": "Point", "coordinates": [-75.15526874343404, 39.537921982803454]}}, {"type": "Feature", "properties": {"OBJECTID": 62, "ACCOUNT_NO": "NJSTRE1548091066", "DOCKET_NO": "QO21020471", "CAPACITY": 1.10592, "APPLICANT": "Solar Landscape", "EDC": "PSE&G", "ADDRESS": "18 Englenard Avenue", "CITY": "Woodbridge Township", "COUNTY": "Middlesex", "ZIP": "07001", "STATE": "NJ", "LATITUDE": 40.593115, "LONGITUDE": -74.259039, "ROOFTOP": "Y", "GROUNDMOUNT": "N", "LMI": "Y", "DESCRIPTION": "Rooftop", "PROGRAMYEAR": "Pilot 2", "COMPLETIONYEAR": "2023", "GLOBALID": "{9084C555-9C9F-43F2-B6D5-FC1376163F5B}"}, "geometry": {"type": "Point", "coordinates": [-74.25904052217695, 40.593123224015464]}}, {"type": "Feature", "properties": {"OBJECTID": 63, "ACCOUNT_NO": "NJSTRE1548091185", "DOCKET_NO": "QO21020369", "CAPACITY": 0.75112, "APPLICANT": "Solar Landscape", "EDC": "JCP&L", "ADDRESS": "46 Park Road", "CITY": "Tinton Falls Borough", "COUNTY": "Monmouth", "ZIP": "07724", "STATE": "NJ", "LATITUDE": 40.286746, "LONGITUDE": -74.081642, "ROOFTOP": "Y", "GROUNDMOUNT": "N", "LMI": "Y", "DESCRIPTION": "Rooftop", "PROGRAMYEAR": "Pilot 2", "COMPLETIONYEAR": "2023", "GLOBALID": "{E5E0E255-2E41-461B-8ED1-883127501211}"}, "geometry": {"type": "Point", "coordinates": [-74.08164344713123, 40.28675416983671]}}, {"type": "Feature", "properties": {"OBJECTID": 64, "ACCOUNT_NO": "NJSTRE1548126145", "DOCKET_NO": "QO21020549", "CAPACITY": 0.783, "APPLICANT": "Moorestown Solar 1, LLC", "EDC": "PSE&G", "ADDRESS": "550 Glen Avenue", "CITY": "Moorestown Township", "COUNTY": "Burlington", "ZIP": "08057", "STATE": "NJ", "LATITUDE": 39.964318, "LONGITUDE": -74.967497, "ROOFTOP": "Y", "GROUNDMOUNT": "N", "LMI": "Y", "DESCRIPTION": "Rooftop", "PROGRAMYEAR": "Pilot 2", "COMPLETIONYEAR": "2023", "GLOBALID": "{2B9B5087-F266-418E-90B8-0BD12E4BC94D}"}, "geometry": {"type": "Point", "coordinates": [-74.96749870954284, 39.9643260746329]}}, {"type": "Feature", "properties": {"OBJECTID": 65, "ACCOUNT_NO": "NJSTRE1548091272", "DOCKET_NO": "QO21020501", "CAPACITY": 0.43173, "APPLICANT": "Solar Landscape", "EDC": "JCP&L", "ADDRESS": "317 Route 37 E", "CITY": "Toms River Township", "COUNTY": "Ocean", "ZIP": "08753", "STATE": "NJ", "LATITUDE": 39.958845, "LONGITUDE": -74.175482, "ROOFTOP": "Y", "GROUNDMOUNT": "N", "LMI": "Y", "DESCRIPTION": "Rooftop", "PROGRAMYEAR": "Pilot 2", "COMPLETIONYEAR": "2023", "GLOBALID": "{F55E85BD-7752-4B8F-B86B-30B50093A9A4}"}, "geometry": {"type": "Point", "coordinates": [-74.17548345770483, 39.95885310141087]}}, {"type": "Feature", "properties": {"OBJECTID": 66, "ACCOUNT_NO": "NJSTRE1548091113", "DOCKET_NO": "QO21020508", "CAPACITY": 0.43453, "APPLICANT": "Solar Landscape", "EDC": "PSE&G", "ADDRESS": "725 US Highway 1", "CITY": "Woodbridge Township", "COUNTY": "Middlesex", "ZIP": "08830", "STATE": "NJ", "LATITUDE": 40.561367, "LONGITUDE": -74.305105, "ROOFTOP": "Y", "GROUNDMOUNT": "N", "LMI": "Y", "DESCRIPTION": "Rooftop", "PROGRAMYEAR": "Pilot 2", "COMPLETIONYEAR": "2023", "GLOBALID": "{04D602D8-47DC-4470-A148-436E17478683}"}, "geometry": {"type": "Point", "coordinates": [-74.30510653496172, 40.561375216152165]}}, {"type": "Feature", "properties": {"OBJECTID": 67, "ACCOUNT_NO": "NJSTRE1548093079", "DOCKET_NO": "QO21020472", "CAPACITY": 0.7321, "APPLICANT": "Solar Landscape", "EDC": "JCP&L", "ADDRESS": "3404 Route NJ 33", "CITY": "Neptune Township", "COUNTY": "Monmouth", "ZIP": "07753", "STATE": "NJ", "LATITUDE": 40.209985, "LONGITUDE": -74.075776, "ROOFTOP": "Y", "GROUNDMOUNT": "N", "LMI": "Y", "DESCRIPTION": "Rooftop", "PROGRAMYEAR": "Pilot 2", "COMPLETIONYEAR": "2023", "GLOBALID": "{6A9FC4AF-2C86-489E-8AC1-B012186F9AC0}"}, "geometry": {"type": "Point", "coordinates": [-74.0757774407143, 40.20999315482879]}}, {"type": "Feature", "properties": {"OBJECTID": 68, "ACCOUNT_NO": "NJSTRE1548091248", "DOCKET_NO": "QO21020230", "CAPACITY": 0.69579, "APPLICANT": "Solar Landscape", "EDC": "PSE&G", "ADDRESS": "1112 Corporate Rd", "CITY": "North Brunswick Township", "COUNTY": "Middlesex", "ZIP": "08902", "STATE": "NJ", "LATITUDE": 40.460823, "LONGITUDE": -74.491704, "ROOFTOP": "Y", "GROUNDMOUNT": "N", "LMI": "Y", "DESCRIPTION": "Rooftop", "PROGRAMYEAR": "Pilot 2", "COMPLETIONYEAR": "2023", "GLOBALID": "{BEF7AF0E-C62F-4354-80A4-72BA8FE3E3F7}"}, "geometry": {"type": "Point", "coordinates": [-74.49170558838799, 40.46083118976899]}}, {"type": "Feature", "properties": {"OBJECTID": 69, "ACCOUNT_NO": "NJSTRE1548091218", "DOCKET_NO": "QO21020290", "CAPACITY": 1.74675, "APPLICANT": "Solar Landscape", "EDC": "PSE&G", "ADDRESS": "2 Corporate Place", "CITY": "Piscataway Township", "COUNTY": "Middlesex", "ZIP": "08854", "STATE": "NJ", "LATITUDE": 40.550112, "LONGITUDE": -74.452971, "ROOFTOP": "Y", "GROUNDMOUNT": "N", "LMI": "Y", "DESCRIPTION": "Rooftop", "PROGRAMYEAR": "Pilot 2", "COMPLETIONYEAR": "2023", "GLOBALID": "{A0FE6CF3-2080-4AAF-A614-BDF08369462E}"}, "geometry": {"type": "Point", "coordinates": [-74.45297258148199, 40.55012020869619]}}, {"type": "Feature", "properties": {"OBJECTID": 70, "ACCOUNT_NO": "NJSTRE1548092850", "DOCKET_NO": "QO21020574", "CAPACITY": 0.88169, "APPLICANT": "Solar Landscape", "EDC": "PSE&G", "ADDRESS": "1951 East Linden Avenue", "CITY": "Linden City", "COUNTY": "Union", "ZIP": "07036", "STATE": "NJ", "LATITUDE": 40.64762, "LONGITUDE": -74.231513, "ROOFTOP": "Y", "GROUNDMOUNT": "N", "LMI": "Y", "DESCRIPTION": "Rooftop", "PROGRAMYEAR": "Pilot 2", "COMPLETIONYEAR": "2023", "GLOBALID": "{89091BB7-6A20-4004-9B69-4886DDA4C309}"}, "geometry": {"type": "Point", "coordinates": [-74.23151451669747, 40.64762823568214]}}, {"type": "Feature", "properties": {"OBJECTID": 71, "ACCOUNT_NO": "NJSTRE1548125931", "DOCKET_NO": "QO21020255", "CAPACITY": 0.8892, "APPLICANT": "Studio Park", "EDC": "PSE&G", "ADDRESS": "1800 E State Street", "CITY": "Hamilton Township", "COUNTY": "Mercer", "ZIP": "08609", "STATE": "NJ", "LATITUDE": 40.235024, "LONGITUDE": -74.731265, "ROOFTOP": "Y", "GROUNDMOUNT": "N", "LMI": "Y", "DESCRIPTION": "Rooftop", "PROGRAMYEAR": "Pilot 2", "COMPLETIONYEAR": "2023", "GLOBALID": "{CCB59C41-4E75-4713-9363-D79EAFE60652}"}, "geometry": {"type": "Point", "coordinates": [-74.73126665093254, 40.23503213671331]}}, {"type": "Feature", "properties": {"OBJECTID": 72, "ACCOUNT_NO": "NJSTRE1548072564", "DOCKET_NO": "QO21020593", "CAPACITY": 2.24952, "APPLICANT": "Solar Landscape", "EDC": "PSE&G", "ADDRESS": "1 County Road", "CITY": "Secaucus Town", "COUNTY": "Hudson", "ZIP": "07094", "STATE": "NJ", "LATITUDE": 40.76353, "LONGITUDE": -74.066841, "ROOFTOP": "Y", "GROUNDMOUNT": "N", "LMI": "Y", "DESCRIPTION": "Rooftop", "PROGRAMYEAR": "Pilot 2", "COMPLETIONYEAR": "2023", "GLOBALID": "{E2A20E37-19A1-4CEC-975E-1C8C1926FFA7}"}, "geometry": {"type": "Point", "coordinates": [-74.0668424710725, 40.76353826419557]}}, {"type": "Feature", "properties": {"OBJECTID": 73, "ACCOUNT_NO": "NJSTRE1548092858", "DOCKET_NO": "QO21020510", "CAPACITY": 0.53784, "APPLICANT": "Solar Landscape", "EDC": "JCP&L", "ADDRESS": "2990 NJ Route 66", "CITY": "Neptune Township", "COUNTY": "Monmouth", "ZIP": "07753", "STATE": "NJ", "LATITUDE": 40.229641, "LONGITUDE": -74.058986, "ROOFTOP": "Y", "GROUNDMOUNT": "N", "LMI": "Y", "DESCRIPTION": "Rooftop", "PROGRAMYEAR": "Pilot 2", "COMPLETIONYEAR": "2023", "GLOBALID": "{C1F2B84C-752E-4317-9B2F-D28ED757597A}"}, "geometry": {"type": "Point", "coordinates": [-74.05898743652179, 40.22964915931013]}}, {"type": "Feature", "properties": {"OBJECTID": 74, "ACCOUNT_NO": "NJSTRE1548072635", "DOCKET_NO": "QO21020286", "CAPACITY": 4.9955, "APPLICANT": "BEMS Community Solar East", "EDC": "JCP&L", "ADDRESS": "Big Hill Rd and Old Forge", "CITY": "Southampton Township", "COUNTY": "Burlington", "ZIP": "08088", "STATE": "NJ", "LATITUDE": 39.892117, "LONGITUDE": -74.694692, "ROOFTOP": "N", "GROUNDMOUNT": "Y", "LMI": "Y", "DESCRIPTION": "Landfill", "PROGRAMYEAR": "Pilot 2", "COMPLETIONYEAR": "2023", "GLOBALID": "{DCB898D3-B961-433D-A4D5-074CF2DC8F03}"}, "geometry": {"type": "Point", "coordinates": [-74.69469361871025, 39.89212506994984]}}, {"type": "Feature", "properties": {"OBJECTID": 75, "ACCOUNT_NO": "NJSTRE1548093128", "DOCKET_NO": "QO21020500", "CAPACITY": 0.61008, "APPLICANT": "Solar Landscape", "EDC": "JCP&L", "ADDRESS": "2540 NJ Route 516", "CITY": "Old Bridge Township", "COUNTY": "Middlesex", "ZIP": "08857", "STATE": "NJ", "LATITUDE": 40.40484, "LONGITUDE": -74.324948, "ROOFTOP": "Y", "GROUNDMOUNT": "N", "LMI": "Y", "DESCRIPTION": "Rooftop", "PROGRAMYEAR": "Pilot 2", "COMPLETIONYEAR": "2023", "GLOBALID": "{AA512862-EACB-4C42-8BE9-436ECF17FB14}"}, "geometry": {"type": "Point", "coordinates": [-74.32494953181315, 40.404848184645765]}}, {"type": "Feature", "properties": {"OBJECTID": 76, "ACCOUNT_NO": "NJSTRE1548064693", "DOCKET_NO": "QO21020594", "CAPACITY": 0.48479, "APPLICANT": "Solar Landscape", "EDC": "PSE&G", "ADDRESS": "301 Penhorn Ave", "CITY": "Secaucus Town", "COUNTY": "Hudson", "ZIP": "07094", "STATE": "NJ", "LATITUDE": 40.767308, "LONGITUDE": -74.060287, "ROOFTOP": "Y", "GROUNDMOUNT": "N", "LMI": "Y", "DESCRIPTION": "Rooftop", "PROGRAMYEAR": "Pilot 2", "COMPLETIONYEAR": "2023", "GLOBALID": "{AE262819-62D6-417F-AEFA-59D0BF1770A9}"}, "geometry": {"type": "Point", "coordinates": [-74.0602884692039, 40.767316265165555]}}, {"type": "Feature", "properties": {"OBJECTID": 77, "ACCOUNT_NO": "NJSTRE1548082917", "DOCKET_NO": "QO21020238", "CAPACITY": 0.98508, "APPLICANT": "Solar Landscape", "EDC": "JCP&L", "ADDRESS": "900 Towbin Avenue", "CITY": "Lakewood Township", "COUNTY": "Ocean", "ZIP": "08701", "STATE": "NJ", "LATITUDE": 40.059337, "LONGITUDE": -74.191379, "ROOFTOP": "Y", "GROUNDMOUNT": "N", "LMI": "Y", "DESCRIPTION": "Rooftop", "PROGRAMYEAR": "Pilot 2", "COMPLETIONYEAR": "2023", "GLOBALID": "{D003DC8B-28CB-4A20-8397-83E24E08FA1A}"}, "geometry": {"type": "Point", "coordinates": [-74.19138046866065, 40.05934512088181]}}, {"type": "Feature", "properties": {"OBJECTID": 78, "ACCOUNT_NO": "NJSTRE1548084019", "DOCKET_NO": "QO21020240", "CAPACITY": 1.539, "APPLICANT": "Solar Landscape", "EDC": "JCP&L", "ADDRESS": "1001 New Hampshire", "CITY": "Lakewood Township", "COUNTY": "Ocean", "ZIP": "08701", "STATE": "NJ", "LATITUDE": 40.058782, "LONGITUDE": -74.194516, "ROOFTOP": "Y", "GROUNDMOUNT": "N", "LMI": "Y", "DESCRIPTION": "Rooftop", "PROGRAMYEAR": "Pilot 2", "COMPLETIONYEAR": "2023", "GLOBALID": "{B783ED96-0B54-4063-9BD0-A450E69226D0}"}, "geometry": {"type": "Point", "coordinates": [-74.1945174696266, 40.058790120662316]}}, {"type": "Feature", "properties": {"OBJECTID": 79, "ACCOUNT_NO": "NJSTRE1548061622", "DOCKET_NO": "QO21020210", "CAPACITY": 0.47196, "APPLICANT": "Brightcore Energy", "EDC": "PSE&G", "ADDRESS": "840-844 N Lenola Road", "CITY": "Moorestown Township", "COUNTY": "Burlington", "ZIP": "08057", "STATE": "NJ", "LATITUDE": 39.969333, "LONGITUDE": -74.991562, "ROOFTOP": "Y", "GROUNDMOUNT": "N", "LMI": "Y", "DESCRIPTION": "Rooftop", "PROGRAMYEAR": "Pilot 2", "COMPLETIONYEAR": "2023", "GLOBALID": "{5E0CAAA2-F367-40DF-9CD3-85BF5B03C761}"}, "geometry": {"type": "Point", "coordinates": [-74.99156371747354, 39.96934107476906]}}, {"type": "Feature", "properties": {"OBJECTID": 80, "ACCOUNT_NO": "NJSTRE1548093065", "DOCKET_NO": "QO21020519", "CAPACITY": 0.74112, "APPLICANT": "Solar Landscape", "EDC": "PSE&G", "ADDRESS": "22 Hollywood Ave", "CITY": "Ho Ho Kus Borough", "COUNTY": "Bergen", "ZIP": "07423", "STATE": "NJ", "LATITUDE": 41.004267, "LONGITUDE": -74.117364, "ROOFTOP": "Y", "GROUNDMOUNT": "N", "LMI": "Y", "DESCRIPTION": "Rooftop", "PROGRAMYEAR": "Pilot 2", "COMPLETIONYEAR": "2023", "GLOBALID": "{049F71BE-33D3-46ED-8B72-817C184A6887}"}, "geometry": {"type": "Point", "coordinates": [-74.11736550204455, 41.004275309362285]}}, {"type": "Feature", "properties": {"OBJECTID": 81, "ACCOUNT_NO": "NJSTRE1548036242", "DOCKET_NO": "QO21020438", "CAPACITY": 0.94455, "APPLICANT": "Henderson Solar, LLC", "EDC": "PSE&G", "ADDRESS": "5 Henderson Drive", "CITY": "West Caldwell Township", "COUNTY": "Essex", "ZIP": "07006", "STATE": "NJ", "LATITUDE": 40.858504, "LONGITUDE": -74.303675, "ROOFTOP": "Y", "GROUNDMOUNT": "N", "LMI": "Y", "DESCRIPTION": "Rooftop", "PROGRAMYEAR": "Pilot 2", "COMPLETIONYEAR": "2023", "GLOBALID": "{003C605E-470B-4AA9-BB6C-3A9495CCCDB2}"}, "geometry": {"type": "Point", "coordinates": [-74.30367655272701, 40.858512274353664]}}, {"type": "Feature", "properties": {"OBJECTID": 82, "ACCOUNT_NO": "NJSTRE1548084050", "DOCKET_NO": "QO21020234", "CAPACITY": 0.71344, "APPLICANT": "Solar Landscape", "EDC": "JCP&L", "ADDRESS": "1100 Towbin Avenue", "CITY": "Lakewood Township", "COUNTY": "Ocean", "ZIP": "08701", "STATE": "NJ", "LATITUDE": 40.056661, "LONGITUDE": -74.191157, "ROOFTOP": "Y", "GROUNDMOUNT": "N", "LMI": "Y", "DESCRIPTION": "Rooftop", "PROGRAMYEAR": "Pilot 2", "COMPLETIONYEAR": "2023", "GLOBALID": "{7A4BC460-2F01-4878-A666-0497B15E9141}"}, "geometry": {"type": "Point", "coordinates": [-74.19115846843246, 40.056669120357]}}, {"type": "Feature", "properties": {"OBJECTID": 83, "ACCOUNT_NO": "NJSTRE1548126135", "DOCKET_NO": "QO21020557", "CAPACITY": 4.9689, "APPLICANT": "Franklin Solar 2, LLC", "EDC": "PSE&G", "ADDRESS": "50 Veronica Avenue", "CITY": "Franklin Township", "COUNTY": "Somerset", "ZIP": "08873", "STATE": "NJ", "LATITUDE": 40.480847, "LONGITUDE": -74.49458, "ROOFTOP": "Y", "GROUNDMOUNT": "N", "LMI": "Y", "DESCRIPTION": "Rooftop", "PROGRAMYEAR": "Pilot 2", "COMPLETIONYEAR": "2023", "GLOBALID": "{051043EE-8DB5-42EF-B8CE-64A10E72B516}"}, "geometry": {"type": "Point", "coordinates": [-74.49458159052584, 40.480855193605436]}}, {"type": "Feature", "properties": {"OBJECTID": 84, "ACCOUNT_NO": "NJSTRE1548090894", "DOCKET_NO": "QO21020232", "CAPACITY": 0.81689, "APPLICANT": "Solar Landscape", "EDC": "JCP&L", "ADDRESS": "1205 Paco Way", "CITY": "Lakewood Township", "COUNTY": "Ocean", "ZIP": "08701", "STATE": "NJ", "LATITUDE": 40.056009, "LONGITUDE": -74.184861, "ROOFTOP": "Y", "GROUNDMOUNT": "N", "LMI": "Y", "DESCRIPTION": "Rooftop", "PROGRAMYEAR": "Pilot 2", "COMPLETIONYEAR": "2023", "GLOBALID": "{98AC8122-8DED-4716-ACEE-4D6D7EBEFE0D}"}, "geometry": {"type": "Point", "coordinates": [-74.18486246638984, 40.05601712044604]}}, {"type": "Feature", "properties": {"OBJECTID": 85, "ACCOUNT_NO": "NJSTRE1548061487", "DOCKET_NO": "QO21020194", "CAPACITY": 0.33212, "APPLICANT": "Brightcore Energy", "EDC": "PSE&G", "ADDRESS": "30 Twosome Drive", "CITY": "Moorestown Township", "COUNTY": "Burlington", "ZIP": "08057", "STATE": "NJ", "LATITUDE": 39.977361, "LONGITUDE": -74.977998, "ROOFTOP": "Y", "GROUNDMOUNT": "N", "LMI": "Y", "DESCRIPTION": "Rooftop", "PROGRAMYEAR": "Pilot 2", "COMPLETIONYEAR": "2023", "GLOBALID": "{056912D0-0475-49A4-8145-66EDE45A06ED}"}, "geometry": {"type": "Point", "coordinates": [-74.97799971365907, 39.97736907684898]}}, {"type": "Feature", "properties": {"OBJECTID": 86, "ACCOUNT_NO": "NJSTRE1548042140", "DOCKET_NO": "QO21020110", "CAPACITY": 2.93802, "APPLICANT": "Altus Power", "EDC": "JCP&L", "ADDRESS": "100 Middlesex Center Blvd", "CITY": "South Brunswick Township", "COUNTY": "Middlesex", "ZIP": "08831", "STATE": "NJ", "LATITUDE": 40.38254, "LONGITUDE": -74.453815, "ROOFTOP": "Y", "GROUNDMOUNT": "N", "LMI": "Y", "DESCRIPTION": "Rooftop", "PROGRAMYEAR": "Pilot 2", "COMPLETIONYEAR": "2023", "GLOBALID": "{780B3E11-14AD-4B6C-B68F-ED58E7F312C8}"}, "geometry": {"type": "Point", "coordinates": [-74.4538165715538, 40.382548175694666]}}, {"type": "Feature", "properties": {"OBJECTID": 87, "ACCOUNT_NO": "NJSTRE1548096001", "DOCKET_NO": "QO21020550", "CAPACITY": 0.41178, "APPLICANT": "Solar Landscape", "EDC": "JCP&L", "ADDRESS": "277 US Hwy 46", "CITY": "Parsippany-Troy Hills Township", "COUNTY": "Morris", "ZIP": "07054", "STATE": "NJ", "LATITUDE": 40.857731, "LONGITUDE": -74.35625, "ROOFTOP": "Y", "GROUNDMOUNT": "N", "LMI": "Y", "DESCRIPTION": "Rooftop", "PROGRAMYEAR": "Pilot 2", "COMPLETIONYEAR": "2023", "GLOBALID": "{17774383-D707-4B02-9761-FC9B91AEB74C}"}, "geometry": {"type": "Point", "coordinates": [-74.3562515695068, 40.857739272326874]}}, {"type": "Feature", "properties": {"OBJECTID": 88, "ACCOUNT_NO": "NJSTRE1548099663", "DOCKET_NO": "QO21020517", "CAPACITY": 1.0692, "APPLICANT": "Solar Landscape", "EDC": "PSE&G", "ADDRESS": "820 East Gate Dr", "CITY": "Mount Laurel Township", "COUNTY": "Burlington", "ZIP": "08054", "STATE": "NJ", "LATITUDE": 39.944752, "LONGITUDE": -74.948924, "ROOFTOP": "Y", "GROUNDMOUNT": "N", "LMI": "Y", "DESCRIPTION": "Rooftop", "PROGRAMYEAR": "Pilot 2", "COMPLETIONYEAR": "2023", "GLOBALID": "{8E68025B-01B9-45E6-A9F8-D49F1F4943FB}"}, "geometry": {"type": "Point", "coordinates": [-74.94892570247607, 39.944760071406854]}}, {"type": "Feature", "properties": {"OBJECTID": 89, "ACCOUNT_NO": "NJSTRE1548125841", "DOCKET_NO": "QO21020254", "CAPACITY": 0.98688, "APPLICANT": "57 N Johnston at Mill One", "EDC": "PSE&G", "ADDRESS": "57 N Johnston Avenue", "CITY": "Hamilton Township", "COUNTY": "Mercer", "ZIP": "08609", "STATE": "NJ", "LATITUDE": 40.231667, "LONGITUDE": -74.735478, "ROOFTOP": "Y", "GROUNDMOUNT": "N", "LMI": "Y", "DESCRIPTION": "Rooftop", "PROGRAMYEAR": "Pilot 2", "COMPLETIONYEAR": "2023", "GLOBALID": "{88069EEF-AD40-43B4-B0D5-9DD79EF6529B}"}, "geometry": {"type": "Point", "coordinates": [-74.73547965206825, 40.231675135899586]}}, {"type": "Feature", "properties": {"OBJECTID": 90, "ACCOUNT_NO": "NJSTRE1548072473", "DOCKET_NO": "QO21020567", "CAPACITY": 1.2194, "APPLICANT": "Solar Landscape", "EDC": "PSE&G", "ADDRESS": "1817 NJ Route 38", "CITY": "Lumberton Township", "COUNTY": "Burlington", "ZIP": "08048", "STATE": "NJ", "LATITUDE": 39.975507, "LONGITUDE": -74.752982, "ROOFTOP": "Y", "GROUNDMOUNT": "N", "LMI": "Y", "DESCRIPTION": "Rooftop", "PROGRAMYEAR": "Pilot 2", "COMPLETIONYEAR": "2023", "GLOBALID": "{669855C0-F11C-4447-A140-F30B88FC4B66}"}, "geometry": {"type": "Point", "coordinates": [-74.75298364218088, 39.97551508449152]}}, {"type": "Feature", "properties": {"OBJECTID": 91, "ACCOUNT_NO": "NJSTRE1548086348", "DOCKET_NO": "QO21020521", "CAPACITY": 0.54782, "APPLICANT": "Solar Landscape", "EDC": "PSE&G", "ADDRESS": "69 Mallory Avenue", "CITY": "Jersey City", "COUNTY": "Hudson", "ZIP": "07304", "STATE": "NJ", "LATITUDE": 40.717122, "LONGITUDE": -74.091545, "ROOFTOP": "Y", "GROUNDMOUNT": "N", "LMI": "Y", "DESCRIPTION": "Rooftop", "PROGRAMYEAR": "Pilot 2", "COMPLETIONYEAR": "2023", "GLOBALID": "{57B90737-E0F0-46FA-9A3D-A8707CA312DB}"}, "geometry": {"type": "Point", "coordinates": [-74.09154647615617, 40.71713025424078]}}, {"type": "Feature", "properties": {"OBJECTID": 92, "ACCOUNT_NO": "NJSTRE1548099637", "DOCKET_NO": "QO21020479", "CAPACITY": 3.83859, "APPLICANT": "Solar Landscape", "EDC": "PSE&G", "ADDRESS": "11 Corn Road", "CITY": "South Brunswick Township", "COUNTY": "Middlesex", "ZIP": "08810", "STATE": "NJ", "LATITUDE": 40.364842, "LONGITUDE": -74.492366, "ROOFTOP": "Y", "GROUNDMOUNT": "N", "LMI": "Y", "DESCRIPTION": "Rooftop", "PROGRAMYEAR": "Pilot 2", "COMPLETIONYEAR": "2023", "GLOBALID": "{6DEBB0D3-3AC9-459C-9B50-0D6D6920428F}"}, "geometry": {"type": "Point", "coordinates": [-74.49236758276685, 40.36485017083849]}}, {"type": "Feature", "properties": {"OBJECTID": 93, "ACCOUNT_NO": "NJSTRE1548072696", "DOCKET_NO": "QO21020539", "CAPACITY": 0.4779, "APPLICANT": "Solar Landscape", "EDC": "JCP&L", "ADDRESS": "1175 NJ Route 10", "CITY": "Hanover Township", "COUNTY": "Morris", "ZIP": "07981", "STATE": "NJ", "LATITUDE": 40.832281, "LONGITUDE": -74.440398, "ROOFTOP": "Y", "GROUNDMOUNT": "N", "LMI": "Y", "DESCRIPTION": "Rooftop", "PROGRAMYEAR": "Pilot 2", "COMPLETIONYEAR": "2023", "GLOBALID": "{4446949F-AA9A-407E-8672-1F1EA631D804}"}, "geometry": {"type": "Point", "coordinates": [-74.44039959485025, 40.83228926435535]}}, {"type": "Feature", "properties": {"OBJECTID": 94, "ACCOUNT_NO": "NJSTRE1548091145", "DOCKET_NO": "QO21020243", "CAPACITY": 4.9955, "APPLICANT": "BEMS Southampton Solar Farm-West", "EDC": "PSE&G", "ADDRESS": "Big Hill Rd & Old Forge Rd", "CITY": "Southampton Township", "COUNTY": "Burlington", "ZIP": "08088", "STATE": "NJ", "LATITUDE": 39.894124, "LONGITUDE": -74.698814, "ROOFTOP": "N", "GROUNDMOUNT": "Y", "LMI": "Y", "DESCRIPTION": "Landfill", "PROGRAMYEAR": "Pilot 2", "COMPLETIONYEAR": "2023", "GLOBALID": "{68C14305-E056-4EA2-B94B-6C95A831810B}"}, "geometry": {"type": "Point", "coordinates": [-74.69881562013722, 39.89413207020439]}}, {"type": "Feature", "properties": {"OBJECTID": 95, "ACCOUNT_NO": "NJSTRE1548093018", "DOCKET_NO": "QO21020502", "CAPACITY": 0.90363, "APPLICANT": "Solar Landscape", "EDC": "PSE&G", "ADDRESS": "2870 Brunswick Pike", "CITY": "Lawrence Township", "COUNTY": "Mercer", "ZIP": "08648", "STATE": "NJ", "LATITUDE": 40.269803, "LONGITUDE": -74.711337, "ROOFTOP": "Y", "GROUNDMOUNT": "N", "LMI": "Y", "DESCRIPTION": "Rooftop", "PROGRAMYEAR": "Pilot 2", "COMPLETIONYEAR": "2023", "GLOBALID": "{0A5245D1-436B-4644-9C25-5FD36A86726D}"}, "geometry": {"type": "Point", "coordinates": [-74.71133864670814, 40.26981114429485]}}, {"type": "Feature", "properties": {"OBJECTID": 96, "ACCOUNT_NO": "NJCERE1556072904", "DOCKET_NO": null, "CAPACITY": 4.999, "APPLICANT": "Altus Power LLC", "EDC": "PSE&G", "ADDRESS": "1240 Cranbury-South River Road", "CITY": "Cranbury Township", "COUNTY": "Middlesex", "ZIP": "08512", "STATE": "NJ", "LATITUDE": 40.33125, "LONGITUDE": -74.48592, "ROOFTOP": "Y", "GROUNDMOUNT": "N", "LMI": "Y", "DESCRIPTION": "Rooftop", "PROGRAMYEAR": "CSEP", "COMPLETIONYEAR": "2024", "GLOBALID": "{1B536491-CECE-4C78-97C7-00B9FA5EBB30}"}, "geometry": {"type": "Point", "coordinates": [-74.48618381623274, 40.33121728145706]}}, {"type": "Feature", "properties": {"OBJECTID": 97, "ACCOUNT_NO": "NJCERE1556072900", "DOCKET_NO": null, "CAPACITY": 4.999, "APPLICANT": "Altus Power LLC", "EDC": "PSE&G", "ADDRESS": "400 Cabot Drive", "CITY": "Hamilton Township", "COUNTY": "Mercer", "ZIP": "08691", "STATE": "NJ", "LATITUDE": 40.197185, "LONGITUDE": -74.656119, "ROOFTOP": "Y", "GROUNDMOUNT": "N", "LMI": "Y", "DESCRIPTION": "Rooftop", "PROGRAMYEAR": "CSEP", "COMPLETIONYEAR": "2024", "GLOBALID": "{0DA43C45-4DF1-4737-A2BA-2BFFF587C0A4}"}, "geometry": {"type": "Point", "coordinates": [-74.65665186186564, 40.19677954259697]}}, {"type": "Feature", "properties": {"OBJECTID": 98, "ACCOUNT_NO": "NJCERE1556072887", "DOCKET_NO": null, "CAPACITY": 1.8354, "APPLICANT": "Altus Power LLC", "EDC": "RECO", "ADDRESS": "301 Island Road", "CITY": "Mahwah Township", "COUNTY": "Bergen", "ZIP": "07430", "STATE": "NJ", "LATITUDE": 41.081408, "LONGITUDE": -74.147529, "ROOFTOP": "Y", "GROUNDMOUNT": "N", "LMI": "Y", "DESCRIPTION": "Rooftop", "PROGRAMYEAR": "CSEP", "COMPLETIONYEAR": "2024", "GLOBALID": "{56D0CED5-B146-497E-AC84-8BF82B4505D1}"}, "geometry": {"type": "Point", "coordinates": [-74.14743637961871, 41.08142601568459]}}, {"type": "Feature", "properties": {"OBJECTID": 99, "ACCOUNT_NO": "NJCERE1556072768", "DOCKET_NO": null, "CAPACITY": 2.9376, "APPLICANT": "Altus Power LLC", "EDC": "PSE&G", "ADDRESS": "1 Wiley Drive", "CITY": "Franklin Township", "COUNTY": "Somerset", "ZIP": "08873", "STATE": "NJ", "LATITUDE": 40.532797, "LONGITUDE": -74.540901, "ROOFTOP": "Y", "GROUNDMOUNT": "N", "LMI": "Y", "DESCRIPTION": "Rooftop", "PROGRAMYEAR": "CSEP", "COMPLETIONYEAR": "2024", "GLOBALID": "{03A01E0C-684B-4F31-AF57-9F0F58B05568}"}, "geometry": {"type": "Point", "coordinates": [-74.54108699802109, 40.53283579524882]}}]}