{"type": "FeatureCollection", "features": [{"type": "Feature", "id": 1, "geometry": {"type": "Point", "coordinates": [-74.63450156509855, 39.29069795083243]}, "properties": {"OBJECTID": 1, "PLANT_CODE": 2378, "PLANT_NAME": "B L England", "UTILITY_NAME": "RC Cape May Holdings LLC", "SITE_ID": 267113, "AIR_PI": 73242, "CITY": "Beesley's Point", "COUNTY": "Cape May", "STATENAME": "New Jersey", "STREET_ADD": "900 North Shore Road", "PRIMSOURCE": "Petroleum", "INSTALL_MW": 339.6, "TOTAL_MW": 298, "SOURCE_DES": "Coal = 150 MW, Petroleum = 148 MW", "TECHNICAL": "Conventional Steam Coal; Petroleum Liquids;", "SOURCE": "EIA-860, EIA-860M and EIA-923", "PERIOD": 201810, "LATITUDE": 39.29069, "LONGITUDE": -74.6345, "EDC": "Atlantic City Electric", "GRIDSUPPLY": "Y", "DMR_LINK": "https://www13.state.nj.us/DataMiner/SearchSite.aspx?PV=267113", "GLOBALID": "{83B0792B-28BB-43B0-9E8D-08597DC9E33B}"}}, {"type": "Feature", "id": 2, "geometry": {"type": "Point", "coordinates": [-75.20140175354427, 39.454707964069975]}, "properties": {"OBJECTID": 2, "PLANT_CODE": 2379, "PLANT_NAME": "Carlls Corner", "UTILITY_NAME": "Calpine New Jersey Generation LLC", "SITE_ID": 15812, "AIR_PI": 75512, "CITY": "Upper Deerfield Twp", "COUNTY": "Cumberland", "STATENAME": "New Jersey", "STREET_ADD": "Burlington Road", "PRIMSOURCE": "Natural Gas", "INSTALL_MW": 83.8, "TOTAL_MW": 79, "SOURCE_DES": "Natural Gas = 78.6 MW", "TECHNICAL": "Natural Gas Fired Combustion Turbine", "SOURCE": "EIA-860, EIA-860M and EIA-923", "PERIOD": 201810, "LATITUDE": 39.4547, "LONGITUDE": -75.2014, "EDC": "Atlantic City Electric", "GRIDSUPPLY": "Y", "DMR_LINK": "https://www13.state.nj.us/DataMiner/SearchSite.aspx?PV=15812", "GLOBALID": "{99ED577E-A797-4C67-8D2F-957B9009147F}"}}, {"type": "Feature", "id": 3, "geometry": {"type": "Point", "coordinates": [-74.3523415452115, 40.476538197882164]}, "properties": {"OBJECTID": 3, "PLANT_CODE": 2390, "PLANT_NAME": "Sayreville", "UTILITY_NAME": "NRG REMA LLC", "SITE_ID": 15778, "AIR_PI": 17884, "CITY": "Sayerville", "COUNTY": "Middlesex", "STATENAME": "New Jersey", "STREET_ADD": "River Road", "PRIMSOURCE": "Natural Gas", "INSTALL_MW": 212, "TOTAL_MW": 200, "SOURCE_DES": "Natural Gas = 200 MW", "TECHNICAL": "Natural Gas Fired Combustion Turbine", "SOURCE": "EIA-860, EIA-860M and EIA-923", "PERIOD": 201810, "LATITUDE": 40.47653, "LONGITUDE": -74.35234, "EDC": "Jersey Central Power & Light", "GRIDSUPPLY": "Y", "DMR_LINK": "https://www13.state.nj.us/DataMiner/SearchSite.aspx?PV=15778", "GLOBALID": "{F4F2FA0B-C28B-4168-A8BD-2843AF70AC9E}"}}, {"type": "Feature", "id": 4, "geometry": {"type": "Point", "coordinates": [-75.16389180855138, 40.56583818656923]}, "properties": {"OBJECTID": 4, "PLANT_CODE": 2393, "PLANT_NAME": "Gilbert", "UTILITY_NAME": "NRG REMA LLC", "SITE_ID": 15852, "AIR_PI": 80002, "CITY": "Milford", "COUNTY": "Hunterdon", "STATENAME": "New Jersey", "STREET_ADD": "315 Riegelsville Rd., Rte. 627", "PRIMSOURCE": "Natural Gas", "INSTALL_MW": 512, "TOTAL_MW": 444, "SOURCE_DES": "Natural Gas = 444 MW", "TECHNICAL": "Natural Gas Fired Combined Cycle; Natural Gas Fired Combustion Turbine;", "SOURCE": "EIA-860, EIA-860M and EIA-923", "PERIOD": 201810, "LATITUDE": 40.56583, "LONGITUDE": -75.16389, "EDC": "Jersey Central Power & Light", "GRIDSUPPLY": "Y", "DMR_LINK": "https://www13.state.nj.us/DataMiner/SearchSite.aspx?PV=15852", "GLOBALID": "{28C87D01-DB01-47BA-A6B5-3F7AC9234485}"}}, {"type": "Feature", "id": 5, "geometry": {"type": "Point", "coordinates": [-74.02465146228435, 40.83964828044358]}, "properties": {"OBJECTID": 5, "PLANT_CODE": 2398, "PLANT_NAME": "Bergen Generating Station", "UTILITY_NAME": "PSEG Fossil LLC", "SITE_ID": 38281, "AIR_PI": 2488, "CITY": "Ridgefield", "COUNTY": "Bergen", "STATENAME": "New Jersey", "STREET_ADD": "Victoria Terrace", "PRIMSOURCE": "Natural Gas", "INSTALL_MW": 1400.8, "TOTAL_MW": 1229, "SOURCE_DES": "Natural Gas = 1229 MW", "TECHNICAL": "Natural Gas Fired Combined Cycle", "SOURCE": "EIA-860, EIA-860M and EIA-923", "PERIOD": 201810, "LATITUDE": 40.839639999999996, "LONGITUDE": -74.02465, "EDC": "Public Service Electric & Gas Co.", "GRIDSUPPLY": "Y", "DMR_LINK": "https://www13.state.nj.us/DataMiner/SearchSite.aspx?PV=38281", "GLOBALID": "{85CB0461-1A40-4457-B634-2BD52D3A8FF5}"}}, {"type": "Feature", "id": 6, "geometry": {"type": "Point", "coordinates": [-74.87917168858108, 40.07661810027799]}, "properties": {"OBJECTID": 6, "PLANT_CODE": 2399, "PLANT_NAME": "PSEG Burlington Generating Station", "UTILITY_NAME": "PSEG Fossil LLC", "SITE_ID": 11015, "AIR_PI": 45979, "CITY": "Burlington", "COUNTY": "Burlington", "STATENAME": "New Jersey", "STREET_ADD": "West Broad & Devlin Avenues", "PRIMSOURCE": "Natural Gas", "INSTALL_MW": 242, "TOTAL_MW": 168, "SOURCE_DES": "Natural Gas = 168 MW", "TECHNICAL": "Natural Gas Fired Combustion Turbine", "SOURCE": "EIA-860, EIA-860M and EIA-923", "PERIOD": 201810, "LATITUDE": 40.076609999999995, "LONGITUDE": -74.87917, "EDC": "Public Service Electric & Gas Co.", "GRIDSUPPLY": "Y", "DMR_LINK": "https://www13.state.nj.us/DataMiner/SearchSite.aspx?PV=11015", "GLOBALID": "{51561EF1-CB4D-42D6-A556-7BF0783B9776}"}}, {"type": "Feature", "id": 7, "geometry": {"type": "Point", "coordinates": [-74.12059148631506, 40.73720825739916]}, "properties": {"OBJECTID": 7, "PLANT_CODE": 2401, "PLANT_NAME": "PSEG Essex Generating Station", "UTILITY_NAME": "PSEG Fossil LLC", "SITE_ID": 14241, "AIR_PI": 7627, "CITY": "Newark", "COUNTY": "Essex", "STATENAME": "New Jersey", "STREET_ADD": "155 Raymond Boulevard", "PRIMSOURCE": "Natural Gas", "INSTALL_MW": 93.60000000000001, "TOTAL_MW": 81, "SOURCE_DES": "Natural Gas = 81 MW", "TECHNICAL": "Natural Gas Fired Combustion Turbine", "SOURCE": "EIA-860, EIA-860M and EIA-923", "PERIOD": 201810, "LATITUDE": 40.7372, "LONGITUDE": -74.12058999999999, "EDC": "Public Service Electric & Gas Co.", "GRIDSUPPLY": "Y", "DMR_LINK": "https://www13.state.nj.us/DataMiner/SearchSite.aspx?PV=14241", "GLOBALID": "{E6FF517B-3F6E-4423-A119-FF46DB040AA5}"}}, {"type": "Feature", "id": 8, "geometry": {"type": "Point", "coordinates": [-74.09646147841427, 40.73728825792032]}, "properties": {"OBJECTID": 8, "PLANT_CODE": 2404, "PLANT_NAME": "PSEG Kearny Generating Station", "UTILITY_NAME": "PSEG Fossil LLC", "SITE_ID": 15972, "AIR_PI": 12200, "CITY": "Kearny", "COUNTY": "Hudson", "STATENAME": "New Jersey", "STREET_ADD": "Hackensack Avenue", "PRIMSOURCE": "Natural Gas", "INSTALL_MW": 605, "TOTAL_MW": 459, "SOURCE_DES": "Natural Gas = 459.4 MW", "TECHNICAL": "Natural Gas Fired Combustion Turbine", "SOURCE": "EIA-860, EIA-860M and EIA-923", "PERIOD": 201810, "LATITUDE": 40.73728, "LONGITUDE": -74.09646, "EDC": "Public Service Electric & Gas Co.", "GRIDSUPPLY": "Y", "DMR_LINK": "https://www13.state.nj.us/DataMiner/SearchSite.aspx?PV=15972", "GLOBALID": "{5FCE04DC-3BFC-4821-9C64-E6CBB378A9D9}"}}, {"type": "Feature", "id": 9, "geometry": {"type": "Point", "coordinates": [-74.20720150695149, 40.62169823104247]}, "properties": {"OBJECTID": 9, "PLANT_CODE": 2406, "PLANT_NAME": "PSEG Linden Generating Station", "UTILITY_NAME": "PSEG Fossil LLC", "SITE_ID": 927, "AIR_PI": 41810, "CITY": "Linden", "COUNTY": "Union", "STATENAME": "New Jersey", "STREET_ADD": "Wood Avenue South", "PRIMSOURCE": "Natural Gas", "INSTALL_MW": 1740, "TOTAL_MW": 1566, "SOURCE_DES": "Natural Gas = 1566.2 MW", "TECHNICAL": "Natural Gas Fired Combined Cycle; Natural Gas Fired Combustion Turbine;", "SOURCE": "EIA-860, EIA-860M and EIA-923", "PERIOD": 201810, "LATITUDE": 40.62169, "LONGITUDE": -74.2072, "EDC": "Public Service Electric & Gas Co.", "GRIDSUPPLY": "Y", "DMR_LINK": "https://www13.state.nj.us/DataMiner/SearchSite.aspx?PV=927", "GLOBALID": "{738ADC61-C244-4BDA-9374-E316A2FBF86C}"}}, {"type": "Feature", "id": 10, "geometry": {"type": "Point", "coordinates": [-75.5357918584152, 39.4624979540751]}, "properties": {"OBJECTID": 10, "PLANT_CODE": 2410, "PLANT_NAME": "PSEG Salem Generating Station", "UTILITY_NAME": "PSEG Nuclear LLC", "SITE_ID": 15647, "AIR_PI": 65500, "CITY": "Hancocks Bridge", "COUNTY": "Salem", "STATENAME": "New Jersey", "STREET_ADD": "P O Box 236 End of Buttonwood", "PRIMSOURCE": "Nuclear", "INSTALL_MW": 2381.8, "TOTAL_MW": 2367, "SOURCE_DES": "Nuclear = 2328.2 MW, Petroleum = 38.4 MW", "TECHNICAL": "Nuclear; Petroleum Liquids;", "SOURCE": "EIA-860, EIA-860M and EIA-923", "PERIOD": 201810, "LATITUDE": 39.462489999999995, "LONGITUDE": -75.53578999999999, "EDC": "Public Service Electric & Gas Co.", "GRIDSUPPLY": "Y", "DMR_LINK": "https://www13.state.nj.us/DataMiner/SearchSite.aspx?PV=15647", "GLOBALID": "{40FD1DC3-AFC0-4173-A648-52814DCC8AC2}"}}, {"type": "Feature", "id": 11, "geometry": {"type": "Point", "coordinates": [-74.24689151568954, 40.555798217357946]}, "properties": {"OBJECTID": 11, "PLANT_CODE": 2411, "PLANT_NAME": "PSEG Sewaren Generating Station", "UTILITY_NAME": "PSEG Fossil LLC", "SITE_ID": 4895, "AIR_PI": 18068, "CITY": "Sewaren", "COUNTY": "Middlesex", "STATENAME": "New Jersey", "STREET_ADD": "751 Cliff Road", "PRIMSOURCE": "Natural Gas", "INSTALL_MW": 452.2, "TOTAL_MW": 451, "SOURCE_DES": "Natural Gas = 450.6 MW", "TECHNICAL": "Natural Gas Steam Turbine", "SOURCE": "EIA-860, EIA-860M and EIA-923", "PERIOD": 201810, "LATITUDE": 40.555789999999995, "LONGITUDE": -74.24689, "EDC": "Public Service Electric & Gas Co.", "GRIDSUPPLY": "Y", "DMR_LINK": "https://www13.state.nj.us/DataMiner/SearchSite.aspx?PV=4895", "GLOBALID": "{F378D40E-EBC2-476E-B84E-AC33A352BD1C}"}}, {"type": "Feature", "id": 12, "geometry": {"type": "Point", "coordinates": [-75.03399170203977, 39.489097977012705]}, "properties": {"OBJECTID": 12, "PLANT_CODE": 2434, "PLANT_NAME": "Howard Down", "UTILITY_NAME": "City of Vineland - (NJ)", "SITE_ID": 14595, "AIR_PI": 75507, "CITY": "Vineland", "COUNTY": "Cumberland", "STATENAME": "New Jersey", "STREET_ADD": "211 N West Ave.", "PRIMSOURCE": "Natural Gas", "INSTALL_MW": 68.2, "TOTAL_MW": 55, "SOURCE_DES": "Natural Gas = 55 MW", "TECHNICAL": "Natural Gas Fired Combustion Turbine", "SOURCE": "EIA-860, EIA-860M and EIA-923", "PERIOD": 201810, "LATITUDE": 39.48909, "LONGITUDE": -75.03399, "EDC": "Municipal", "GRIDSUPPLY": "Y", "DMR_LINK": "https://www13.state.nj.us/DataMiner/SearchSite.aspx?PV=14595", "GLOBALID": "{584DB22B-624B-46A1-84FD-97D5875EF426}"}}, {"type": "Feature", "id": 13, "geometry": {"type": "Point", "coordinates": [-74.9654016741785, 39.37570795649327]}, "properties": {"OBJECTID": 13, "PLANT_CODE": 5083, "PLANT_NAME": "Cumberland (NJ)", "UTILITY_NAME": "Calpine New Jersey Generation LLC", "SITE_ID": 15862, "AIR_PI": 75508, "CITY": "Millville", "COUNTY": "Cumberland", "STATENAME": "New Jersey", "STREET_ADD": "4001 East Main Street", "PRIMSOURCE": "Natural Gas", "INSTALL_MW": 231.20000000000002, "TOTAL_MW": 183, "SOURCE_DES": "Natural Gas = 183.1 MW", "TECHNICAL": "Natural Gas Fired Combustion Turbine", "SOURCE": "EIA-860, EIA-860M and EIA-923", "PERIOD": 201810, "LATITUDE": 39.3757, "LONGITUDE": -74.9654, "EDC": "Atlantic City Electric", "GRIDSUPPLY": "Y", "DMR_LINK": "https://www13.state.nj.us/DataMiner/SearchSite.aspx?PV=15862", "GLOBALID": "{B2110059-8B5D-4E3D-A8AB-95D68DDF3D3E}"}}, {"type": "Feature", "id": 14, "geometry": {"type": "Point", "coordinates": [-75.53770185995, 39.46660795493041]}, "properties": {"OBJECTID": 14, "PLANT_CODE": 6118, "PLANT_NAME": "PSEG Hope Creek Generating Station", "UTILITY_NAME": "PSEG Nuclear LLC", "SITE_ID": 15647, "AIR_PI": 65500, "CITY": "Hancocks Bridge", "COUNTY": "Salem", "STATENAME": "New Jersey", "STREET_ADD": "P O Box 236 End of Buttonwood", "PRIMSOURCE": "Nuclear", "INSTALL_MW": 1290.7, "TOTAL_MW": 1172, "SOURCE_DES": "Nuclear = 1172 MW", "TECHNICAL": "Nuclear", "SOURCE": "EIA-860, EIA-860M and EIA-923", "PERIOD": 201810, "LATITUDE": 39.4666, "LONGITUDE": -75.5377, "EDC": "Public Service Electric & Gas Co.", "GRIDSUPPLY": "Y", "DMR_LINK": "https://www13.state.nj.us/DataMiner/SearchSite.aspx?PV=15647", "GLOBALID": "{8B942190-D0A0-49E3-A348-1966D4985969}"}}, {"type": "Feature", "id": 15, "geometry": {"type": "Point", "coordinates": [-75.03165179467761, 41.00085827564989]}, "properties": {"OBJECTID": 15, "PLANT_CODE": 6522, "PLANT_NAME": "Yards Creek", "UTILITY_NAME": "Jersey Central Power & Lt Co", "SITE_ID": 428, "AIR_PI": 0, "CITY": "Blairstown", "COUNTY": "Warren", "STATENAME": "New Jersey", "STREET_ADD": "Mount Vernon Road", "PRIMSOURCE": "Pumped Storage", "INSTALL_MW": 453, "TOTAL_MW": 420, "SOURCE_DES": "Pumped Storage = 420 MW", "TECHNICAL": "Hydroelectric Pumped Storage", "SOURCE": "EIA-860, EIA-860M and EIA-923", "PERIOD": 201810, "LATITUDE": 41.00085, "LONGITUDE": -75.03165, "EDC": "Jersey Central Power & Light", "GRIDSUPPLY": "Y", "DMR_LINK": "https://www13.state.nj.us/DataMiner/SearchSite.aspx?PV=428", "GLOBALID": "{E6C4F703-3823-4046-9D6B-9D19BAAF27C5}"}}, {"type": "Feature", "id": 16, "geometry": {"type": "Point", "coordinates": [-75.04859170678733, 39.4911979772504]}, "properties": {"OBJECTID": 16, "PLANT_CODE": 6776, "PLANT_NAME": "West Station (NJ)", "UTILITY_NAME": "City of Vineland - (NJ)", "SITE_ID": 14583, "AIR_PI": 75482, "CITY": "Vineland", "COUNTY": "Cumberland", "STATENAME": "New Jersey", "STREET_ADD": " 1185 New Peach Street", "PRIMSOURCE": "Petroleum", "INSTALL_MW": 27, "TOTAL_MW": 23, "SOURCE_DES": "Petroleum = 22.9 MW", "TECHNICAL": "Petroleum Liquids", "SOURCE": "EIA-860, EIA-860M and EIA-923", "PERIOD": 201810, "LATITUDE": 39.491189999999996, "LONGITUDE": -75.04858999999999, "EDC": "Municipal", "GRIDSUPPLY": "Y", "DMR_LINK": "https://www13.state.nj.us/DataMiner/SearchSite.aspx?PV=14583", "GLOBALID": "{C5BF0758-5183-4F9A-876D-FC1FB86A541F}"}}, {"type": "Feature", "id": 17, "geometry": {"type": "Point", "coordinates": [-74.20980145978245, 39.81539807123971]}, "properties": {"OBJECTID": 17, "PLANT_CODE": 7138, "PLANT_NAME": "Forked River", "UTILITY_NAME": "Maxim Power (USA) Inc", "SITE_ID": 14506, "AIR_PI": 78912, "CITY": "Forked River", "COUNTY": "Ocean", "STATENAME": "New Jersey", "STREET_ADD": "789 South Main Street", "PRIMSOURCE": "Natural Gas", "INSTALL_MW": 76.8, "TOTAL_MW": 65, "SOURCE_DES": "Natural Gas = 65 MW", "TECHNICAL": "Natural Gas Fired Combustion Turbine", "SOURCE": "EIA-860, EIA-860M and EIA-923", "PERIOD": 201810, "LATITUDE": 39.81539, "LONGITUDE": -74.2098, "EDC": "Jersey Central Power & Light", "GRIDSUPPLY": "Y", "DMR_LINK": "https://www13.state.nj.us/DataMiner/SearchSite.aspx?PV=14506", "GLOBALID": "{D2CBDECA-63E8-47F6-AF08-5B21A69BB715}"}}, {"type": "Feature", "id": 18, "geometry": {"type": "Point", "coordinates": [-75.05801170729147, 39.45089796834588]}, "properties": {"OBJECTID": 18, "PLANT_CODE": 7288, "PLANT_NAME": "Sherman Avenue", "UTILITY_NAME": "Calpine New Jersey Generation LLC", "SITE_ID": 15811, "AIR_PI": 75476, "CITY": "Vineland", "COUNTY": "Cumberland", "STATENAME": "New Jersey", "STREET_ADD": "Orchard Road", "PRIMSOURCE": "Natural Gas", "INSTALL_MW": 112.8, "TOTAL_MW": 82, "SOURCE_DES": "Natural Gas = 82.4 MW", "TECHNICAL": "Natural Gas Fired Combustion Turbine", "SOURCE": "EIA-860, EIA-860M and EIA-923", "PERIOD": 201810, "LATITUDE": 39.45089, "LONGITUDE": -75.05801, "EDC": "Municipal", "GRIDSUPPLY": "Y", "DMR_LINK": "https://www13.state.nj.us/DataMiner/SearchSite.aspx?PV=15811", "GLOBALID": "{505E7AC1-7068-4A41-9F84-1AC37A43D9DF}"}}, {"type": "Feature", "id": 19, "geometry": {"type": "Point", "coordinates": [-75.24892178940368, 39.81290803421794]}, "properties": {"OBJECTID": 19, "PLANT_CODE": 8008, "PLANT_NAME": "Mickleton Station", "UTILITY_NAME": "Calpine New Jersey Generation LLC", "SITE_ID": 15895, "AIR_PI": 55784, "CITY": "Mickleton", "COUNTY": "Gloucester", "STATENAME": "New Jersey", "STREET_ADD": "Harmony Road", "PRIMSOURCE": "Natural Gas", "INSTALL_MW": 71.2, "TOTAL_MW": 65, "SOURCE_DES": "Natural Gas = 64.9 MW", "TECHNICAL": "Natural Gas Fired Combustion Turbine", "SOURCE": "EIA-860, EIA-860M and EIA-923", "PERIOD": 201810, "LATITUDE": 39.8129, "LONGITUDE": -75.24892, "EDC": "Atlantic City Electric", "GRIDSUPPLY": "Y", "DMR_LINK": "https://www13.state.nj.us/DataMiner/SearchSite.aspx?PV=15895", "GLOBALID": "{53265EB8-B625-4DBF-A840-99696222969C}"}}, {"type": "Feature", "id": 20, "geometry": {"type": "Point", "coordinates": [-75.01120177640037, 40.820508241605964]}, "properties": {"OBJECTID": 20, "PLANT_CODE": 10012, "PLANT_NAME": "Covanta Warren Energy", "UTILITY_NAME": "Covanta Warren Energy Resource Co LP", "SITE_ID": 14556, "AIR_PI": 85455, "CITY": "Oxford", "COUNTY": "Warren", "STATENAME": "New Jersey", "STREET_ADD": "218 Mt Pisgah ave.", "PRIMSOURCE": "Biomass", "INSTALL_MW": 13.5, "TOTAL_MW": 10, "SOURCE_DES": "Biomass = 10 MW", "TECHNICAL": "Municipal Solid Waste", "SOURCE": "EIA-860, EIA-860M and EIA-923", "PERIOD": 201810, "LATITUDE": 40.8205, "LONGITUDE": -75.0112, "EDC": "Jersey Central Power & Light", "GRIDSUPPLY": "Y", "DMR_LINK": "https://www13.state.nj.us/DataMiner/SearchSite.aspx?PV=14556", "GLOBALID": "{ED6D87FC-15E4-44E9-9625-F17FAC1339F4}"}}, {"type": "Feature", "id": 21, "geometry": {"type": "Point", "coordinates": [-75.40663183760721, 39.79221802471049]}, "properties": {"OBJECTID": 21, "PLANT_CODE": 10043, "PLANT_NAME": "Logan Generating Company LP", "UTILITY_NAME": "US Operating Services Company", "SITE_ID": 15832, "AIR_PI": 55834, "CITY": "Swedesboro", "COUNTY": "Gloucester", "STATENAME": "New Jersey", "STREET_ADD": "76 Route 130", "PRIMSOURCE": "Coal", "INSTALL_MW": 242.3, "TOTAL_MW": 219, "SOURCE_DES": "Coal = 219 MW", "TECHNICAL": "Conventional Steam Coal", "SOURCE": "EIA-860, EIA-860M and EIA-923", "PERIOD": 201810, "LATITUDE": 39.79221, "LONGITUDE": -75.40662999999999, "EDC": "Atlantic City Electric", "GRIDSUPPLY": "Y", "DMR_LINK": "https://www13.state.nj.us/DataMiner/SearchSite.aspx?PV=15832", "GLOBALID": "{5A514E0A-8200-42FE-8D92-1FBF2986833A}"}}, {"type": "Feature", "id": 22, "geometry": {"type": "Point", "coordinates": [-74.8243117192867, 40.86304825607177]}, "properties": {"OBJECTID": 22, "PLANT_CODE": 10061, "PLANT_NAME": "Mars Wrigley Confectionery US, LLC", "UTILITY_NAME": "Mars Wrigley Confectionery US, LLC", "SITE_ID": 14492, "AIR_PI": 85443, "CITY": "Hackettstown", "COUNTY": "Warren", "STATENAME": "New Jersey", "STREET_ADD": "700 High Street", "PRIMSOURCE": "Natural Gas", "INSTALL_MW": 10.200000000000001, "TOTAL_MW": 11, "SOURCE_DES": "Natural Gas = 10.7 MW", "TECHNICAL": "Natural Gas Fired Combined Cycle", "SOURCE": "EIA-860, EIA-860M and EIA-923", "PERIOD": 201810, "LATITUDE": 40.86304, "LONGITUDE": -74.82431, "EDC": "Jersey Central Power & Light", "GRIDSUPPLY": "N", "DMR_LINK": "https://www13.state.nj.us/DataMiner/SearchSite.aspx?PV=14492", "GLOBALID": "{9689B656-4BD3-4B6F-B6BF-504304333E45}"}}, {"type": "Feature", "id": 23, "geometry": {"type": "Point", "coordinates": [-75.42380184230849, 39.766808019282095]}, "properties": {"OBJECTID": 23, "PLANT_CODE": 10099, "PLANT_NAME": "Pedricktown Cogeneration Company LP", "UTILITY_NAME": "Pedricktown Cogeneration Company LP", "SITE_ID": 15658, "AIR_PI": 65497, "CITY": "Pedricktown", "COUNTY": "Salem", "STATENAME": "New Jersey", "STREET_ADD": "143 Highway 130", "PRIMSOURCE": "Natural Gas", "INSTALL_MW": 134.5, "TOTAL_MW": 115, "SOURCE_DES": "Natural Gas = 115.3 MW", "TECHNICAL": "Natural Gas Fired Combined Cycle", "SOURCE": "EIA-860, EIA-860M and EIA-923", "PERIOD": 201810, "LATITUDE": 39.7668, "LONGITUDE": -75.4238, "EDC": "Atlantic City Electric", "GRIDSUPPLY": "Y", "DMR_LINK": "https://www13.state.nj.us/DataMiner/SearchSite.aspx?PV=15658", "GLOBALID": "{9DA9A260-70FC-4F93-A493-CFDBF0F90877}"}}, {"type": "Feature", "id": 24, "geometry": {"type": "Point", "coordinates": [-74.63447164431597, 40.62406821649169]}, "properties": {"OBJECTID": 24, "PLANT_CODE": 10122, "PLANT_NAME": "CIP II/AR Bridgewater Holdings - NJCOE", "UTILITY_NAME": "CIP II/AR Bridgewater Holdings LLC", "SITE_ID": 15703, "AIR_PI": 35832, "CITY": "Bridgewater", "COUNTY": "Somerset", "STATENAME": "New Jersey", "STREET_ADD": "993 Route 202/206", "PRIMSOURCE": "Natural Gas", "INSTALL_MW": 5, "TOTAL_MW": 4, "SOURCE_DES": "Natural Gas = 4.1 MW", "TECHNICAL": "Natural Gas Fired Combustion Turbine", "SOURCE": "EIA-860, EIA-860M and EIA-923", "PERIOD": 201810, "LATITUDE": 40.62406, "LONGITUDE": -74.63447, "EDC": "Jersey Central Power & Light", "GRIDSUPPLY": "N", "DMR_LINK": "https://www13.state.nj.us/DataMiner/SearchSite.aspx?PV=15703", "GLOBALID": "{AC339034-6AA6-4227-B4B3-A663121517B2}"}}, {"type": "Feature", "id": 25, "geometry": {"type": "Point", "coordinates": [-74.15500150359776, 40.83590827538462]}, "properties": {"OBJECTID": 25, "PLANT_CODE": 10123, "PLANT_NAME": "Hoffmann LaRoche", "UTILITY_NAME": "PB Nutclif Master, LLC", "SITE_ID": 14243, "AIR_PI": 7167, "CITY": "Nutley", "COUNTY": "Essex", "STATENAME": "New Jersey", "STREET_ADD": "340 Kingsland Street", "PRIMSOURCE": "Natural Gas", "INSTALL_MW": 10.6, "TOTAL_MW": 8, "SOURCE_DES": "Natural Gas = 8.2 MW", "TECHNICAL": "Natural Gas Fired Combustion Turbine", "SOURCE": "EIA-860, EIA-860M and EIA-923", "PERIOD": 201810, "LATITUDE": 40.8359, "LONGITUDE": -74.155, "EDC": "Public Service Electric & Gas Co.", "GRIDSUPPLY": "N", "DMR_LINK": "https://www13.state.nj.us/DataMiner/SearchSite.aspx?PV=14243", "GLOBALID": "{3180AF33-A11A-4AD7-8741-BFA27B25A60E}"}}, {"type": "Feature", "id": 26, "geometry": {"type": "Point", "coordinates": [-74.26529152509544, 40.61562822789298]}, "properties": {"OBJECTID": 26, "PLANT_CODE": 10224, "PLANT_NAME": "Merck Rahway Power Plant", "UTILITY_NAME": "Merck & Co Inc", "SITE_ID": 14721, "AIR_PI": 41712, "CITY": "Rahway", "COUNTY": "Union", "STATENAME": "New Jersey", "STREET_ADD": "126 E. Lincoln Ave", "PRIMSOURCE": "Natural Gas", "INSTALL_MW": 16.3, "TOTAL_MW": 15, "SOURCE_DES": "Natural Gas = 14.8 MW, Solar = 0.5 MW", "TECHNICAL": "Natural Gas Steam Turbine; Solar Photovoltaic;", "SOURCE": "EIA-860, EIA-860M and EIA-923", "PERIOD": 201810, "LATITUDE": 40.61562, "LONGITUDE": -74.26529, "EDC": "Public Service Electric & Gas Co.", "GRIDSUPPLY": "N", "DMR_LINK": "https://www13.state.nj.us/DataMiner/SearchSite.aspx?PV=14721", "GLOBALID": "{31F81678-2F1B-43D3-8ED4-AA0154B3FEFC}"}}, {"type": "Feature", "id": 27, "geometry": {"type": "Point", "coordinates": [-74.34439153989129, 40.439008190503294]}, "properties": {"OBJECTID": 27, "PLANT_CODE": 10308, "PLANT_NAME": "Sayreville Cogeneration Facility", "UTILITY_NAME": "North Jersey Energy Assoc LP", "SITE_ID": 14815, "AIR_PI": 18072, "CITY": "Sayreville", "COUNTY": "Middlesex", "STATENAME": "New Jersey", "STREET_ADD": "601 Jernee Mill Road", "PRIMSOURCE": "Natural Gas", "INSTALL_MW": 430.2, "TOTAL_MW": 292, "SOURCE_DES": "Natural Gas = 292 MW", "TECHNICAL": "Natural Gas Fired Combined Cycle", "SOURCE": "EIA-860, EIA-860M and EIA-923", "PERIOD": 201810, "LATITUDE": 40.439, "LONGITUDE": -74.34438999999999, "EDC": "Jersey Central Power & Light", "GRIDSUPPLY": "Y", "DMR_LINK": "https://www13.state.nj.us/DataMiner/SearchSite.aspx?PV=14815", "GLOBALID": "{2ED288FE-D2C0-4976-A61F-F0236EFABB15}"}}, {"type": "Feature", "id": 28, "geometry": {"type": "Point", "coordinates": [-75.11634175323218, 39.909548058226655]}, "properties": {"OBJECTID": 28, "PLANT_CODE": 10435, "PLANT_NAME": "Camden Resource Recovery Facility", "UTILITY_NAME": "Covanta Camden Energy Recovery Center", "SITE_ID": 14650, "AIR_PI": 51614, "CITY": "Camden", "COUNTY": "Camden", "STATENAME": "New Jersey", "STREET_ADD": "600 Morgan Blvd.", "PRIMSOURCE": "Biomass", "INSTALL_MW": 35, "TOTAL_MW": 33, "SOURCE_DES": "Biomass = 33 MW", "TECHNICAL": "Municipal Solid Waste", "SOURCE": "EIA-860, EIA-860M and EIA-923", "PERIOD": 201810, "LATITUDE": 39.90954, "LONGITUDE": -75.11634, "EDC": "Public Service Electric & Gas Co.", "GRIDSUPPLY": "Y", "DMR_LINK": "https://www13.state.nj.us/DataMiner/SearchSite.aspx?PV=14650", "GLOBALID": "{78AD126E-A7FC-4187-B17F-0EF90ED0E526}"}}, {"type": "Feature", "id": 29, "geometry": {"type": "Point", "coordinates": [-75.48581185717528, 39.693498002413094]}, "properties": {"OBJECTID": 29, "PLANT_CODE": 10566, "PLANT_NAME": "Chambers Cogeneration LP", "UTILITY_NAME": "US Operating Services Company", "SITE_ID": 14615, "AIR_PI": 65498, "CITY": "Carneys Point", "COUNTY": "Salem", "STATENAME": "New Jersey", "STREET_ADD": "500 Shell Rd.", "PRIMSOURCE": "Coal", "INSTALL_MW": 285, "TOTAL_MW": 244, "SOURCE_DES": "Coal = 244 MW", "TECHNICAL": "Conventional Steam Coal", "SOURCE": "EIA-860, EIA-860M and EIA-923", "PERIOD": 201810, "LATITUDE": 39.69349, "LONGITUDE": -75.48581, "EDC": "Atlantic City Electric", "GRIDSUPPLY": "Y", "DMR_LINK": "https://www13.state.nj.us/DataMiner/SearchSite.aspx?PV=14615", "GLOBALID": "{416FA0CF-91FE-4220-8CC6-4FDD24F4DA29}"}}, {"type": "Feature", "id": 30, "geometry": {"type": "Point", "coordinates": [-74.12625148873708, 40.73833825753114]}, "properties": {"OBJECTID": 30, "PLANT_CODE": 10643, "PLANT_NAME": "Covanta Essex Company", "UTILITY_NAME": "Covanta Essex Company", "SITE_ID": 14211, "AIR_PI": 7736, "CITY": "Newark", "COUNTY": "Essex", "STATENAME": "New Jersey", "STREET_ADD": "183 Raymond Blvd", "PRIMSOURCE": "Biomass", "INSTALL_MW": 69.8, "TOTAL_MW": 60, "SOURCE_DES": "Biomass = 60 MW", "TECHNICAL": "Municipal Solid Waste", "SOURCE": "EIA-860, EIA-860M and EIA-923", "PERIOD": 201810, "LATITUDE": 40.73833, "LONGITUDE": -74.12625, "EDC": "Public Service Electric & Gas Co.", "GRIDSUPPLY": "Y", "DMR_LINK": "https://www13.state.nj.us/DataMiner/SearchSite.aspx?PV=14211", "GLOBALID": "{945FEC33-4403-4AA5-8E30-3F8638D80DEC}"}}, {"type": "Feature", "id": 31, "geometry": {"type": "Point", "coordinates": [-75.11904175429757, 39.91793805993064]}, "properties": {"OBJECTID": 31, "PLANT_CODE": 10751, "PLANT_NAME": "Camden Plant Holding LLC", "UTILITY_NAME": "Morris Energy Operations Company, LLC", "SITE_ID": 14648, "AIR_PI": 51608, "CITY": "Camden", "COUNTY": "Camden", "STATENAME": "New Jersey", "STREET_ADD": "570 Chelton Ave", "PRIMSOURCE": "Natural Gas", "INSTALL_MW": 157, "TOTAL_MW": 145, "SOURCE_DES": "Natural Gas = 145 MW", "TECHNICAL": "Natural Gas Fired Combined Cycle", "SOURCE": "EIA-860, EIA-860M and EIA-923", "PERIOD": 201810, "LATITUDE": 39.91793, "LONGITUDE": -75.11904, "EDC": "Public Service Electric & Gas Co.", "GRIDSUPPLY": "Y", "DMR_LINK": "https://www13.state.nj.us/DataMiner/SearchSite.aspx?PV=14648", "GLOBALID": "{2F47258C-3CCD-4315-9B18-87893456A83F}"}}, {"type": "Feature", "id": 32, "geometry": {"type": "Point", "coordinates": [-74.27467153226466, 40.676688240014755]}, "properties": {"OBJECTID": 32, "PLANT_CODE": 10805, "PLANT_NAME": "Kenilworth Energy Facility", "UTILITY_NAME": "E F Kenilworth LLC", "SITE_ID": 440649, "AIR_PI": 41741, "CITY": "Kenilworth", "COUNTY": "Union", "STATENAME": "New Jersey", "STREET_ADD": "2000 Galloping Hill Rd Bld K14", "PRIMSOURCE": "Natural Gas", "INSTALL_MW": 28.8, "TOTAL_MW": 24, "SOURCE_DES": "Natural Gas = 24.5 MW", "TECHNICAL": "Natural Gas Fired Combined Cycle", "SOURCE": "EIA-860, EIA-860M and EIA-923", "PERIOD": 201810, "LATITUDE": 40.67668, "LONGITUDE": -74.27467, "EDC": "Public Service Electric & Gas Co.", "GRIDSUPPLY": "Y", "DMR_LINK": "https://www13.state.nj.us/DataMiner/SearchSite.aspx?PV=440649", "GLOBALID": "{379723EC-6622-48B5-A52A-7D0056659262}"}}, {"type": "Feature", "id": 33, "geometry": {"type": "Point", "coordinates": [-74.21487151072252, 40.63246823284984]}, "properties": {"OBJECTID": 33, "PLANT_CODE": 50006, "PLANT_NAME": "Linden Cogen Plant", "UTILITY_NAME": "EFS Cogen Holdings I LLC", "SITE_ID": 32509, "AIR_PI": 41809, "CITY": "Linden", "COUNTY": "Union", "STATENAME": "New Jersey", "STREET_ADD": "RR & Chemico Ave", "PRIMSOURCE": "Natural Gas", "INSTALL_MW": 974.1, "TOTAL_MW": 955, "SOURCE_DES": "Natural Gas = 955 MW", "TECHNICAL": "Natural Gas Fired Combined Cycle", "SOURCE": "EIA-860, EIA-860M and EIA-923", "PERIOD": 201810, "LATITUDE": 40.632459999999995, "LONGITUDE": -74.21486999999999, "EDC": "Public Service Electric & Gas Co.", "GRIDSUPPLY": "Y", "DMR_LINK": "https://www13.state.nj.us/DataMiner/SearchSite.aspx?PV=32509", "GLOBALID": "{AFA946A7-2F30-4BE1-95A8-678825E82717}"}}, {"type": "Feature", "id": 34, "geometry": {"type": "Point", "coordinates": [-74.76455166052408, 40.216658131819415]}, "properties": {"OBJECTID": 34, "PLANT_CODE": 50094, "PLANT_NAME": "Veolia Energy Trenton L.P.", "UTILITY_NAME": "Veolia Energy Trenton L.P", "SITE_ID": 14543, "AIR_PI": 61015, "CITY": "Trenton", "COUNTY": "Mercer", "STATENAME": "New Jersey", "STREET_ADD": "320 S. Warren St.", "PRIMSOURCE": "Natural Gas", "INSTALL_MW": 6, "TOTAL_MW": 6, "SOURCE_DES": "Natural Gas = 5.8 MW", "TECHNICAL": "Natural Gas Internal Combustion Engine", "SOURCE": "EIA-860, EIA-860M and EIA-923", "PERIOD": 201810, "LATITUDE": 40.21665, "LONGITUDE": -74.76455, "EDC": "Public Service Electric & Gas Co.", "GRIDSUPPLY": "Y", "DMR_LINK": "https://www13.state.nj.us/DataMiner/SearchSite.aspx?PV=14543", "GLOBALID": "{0EB5AB25-1DE1-457C-B813-E95C506F28BC}"}}, {"type": "Feature", "id": 35, "geometry": {"type": "Point", "coordinates": [-74.2306015304458, 40.88370828148473]}, "properties": {"OBJECTID": 35, "PLANT_CODE": 50311, "PLANT_NAME": "Passaic Valley Water Commission", "UTILITY_NAME": "Passaic Valley Water Comm", "SITE_ID": 46767, "AIR_PI": 0, "CITY": "Totowa", "COUNTY": "Passaic", "STATENAME": "New Jersey", "STREET_ADD": "Union Blvd. & Riverview Drive", "PRIMSOURCE": "Hydroelectric", "INSTALL_MW": 2.4, "TOTAL_MW": 2, "SOURCE_DES": "Hydroelectric = 2.4 MW", "TECHNICAL": "Conventional Hydroelectric", "SOURCE": "EIA-860, EIA-860M and EIA-923", "PERIOD": 201810, "LATITUDE": 40.883700000000005, "LONGITUDE": -74.23060000000001, "EDC": "Public Service Electric & Gas Co.", "GRIDSUPPLY": "Y", "DMR_LINK": "https://www13.state.nj.us/DataMiner/SearchSite.aspx?PV=46767", "GLOBALID": "{F0A79A04-6CFC-4D15-9A49-CE0B6DE93FC6}"}}, {"type": "Feature", "id": 36, "geometry": {"type": "Point", "coordinates": [-74.13027148855386, 40.72015825326454]}, "properties": {"OBJECTID": 36, "PLANT_CODE": 50385, "PLANT_NAME": "Newark Bay Cogeneration Partnership LP", "UTILITY_NAME": "Newark Bay Cogeneration Partnership LP", "SITE_ID": 8717, "AIR_PI": 7617, "CITY": "Newark", "COUNTY": "Essex", "STATENAME": "New Jersey", "STREET_ADD": "414-462 Avenue P", "PRIMSOURCE": "Natural Gas", "INSTALL_MW": 139, "TOTAL_MW": 120, "SOURCE_DES": "Natural Gas = 120.2 MW", "TECHNICAL": "Natural Gas Fired Combined Cycle", "SOURCE": "EIA-860, EIA-860M and EIA-923", "PERIOD": 201810, "LATITUDE": 40.72015, "LONGITUDE": -74.13027, "EDC": "Public Service Electric & Gas Co.", "GRIDSUPPLY": "Y", "DMR_LINK": "https://www13.state.nj.us/DataMiner/SearchSite.aspx?PV=8717", "GLOBALID": "{BAF3C550-9544-4066-A472-7A1EB8F6C4A3}"}}, {"type": "Feature", "id": 37, "geometry": {"type": "Point", "coordinates": [-74.18763150868723, 40.73928825558663]}, "properties": {"OBJECTID": 37, "PLANT_CODE": 50411, "PLANT_NAME": "Rutgers Biomedical and Health Cogen", "UTILITY_NAME": "Rutgers, The State University of NJ", "SITE_ID": 93815, "AIR_PI": 8992, "CITY": "Newark", "COUNTY": "Essex", "STATENAME": "New Jersey", "STREET_ADD": "295 Norfolk Ave.", "PRIMSOURCE": "Natural Gas", "INSTALL_MW": 10.5, "TOTAL_MW": 10, "SOURCE_DES": "Natural Gas = 10.2 MW", "TECHNICAL": "Natural Gas Fired Combustion Turbine", "SOURCE": "EIA-860, EIA-860M and EIA-923", "PERIOD": 201810, "LATITUDE": 40.73928, "LONGITUDE": -74.18763, "EDC": "Public Service Electric & Gas Co.", "GRIDSUPPLY": "N", "DMR_LINK": "https://www13.state.nj.us/DataMiner/SearchSite.aspx?PV=93815", "GLOBALID": "{AF6C28F3-BFC3-4A18-BC60-CF737B538A2C}"}}, {"type": "Feature", "id": 38, "geometry": {"type": "Point", "coordinates": [-75.15574176391745, 39.87130804919436]}, "properties": {"OBJECTID": 38, "PLANT_CODE": 50561, "PLANT_NAME": "Eagle Point Power Generation", "UTILITY_NAME": "Eagle Point Power Generation LLC", "SITE_ID": 15834, "AIR_PI": 56220, "CITY": "Westville", "COUNTY": "Gloucester", "STATENAME": "New Jersey", "STREET_ADD": "1250 Crown Point Road", "PRIMSOURCE": "Natural Gas", "INSTALL_MW": 251.8, "TOTAL_MW": 237, "SOURCE_DES": "Natural Gas = 236.8 MW", "TECHNICAL": "Natural Gas Fired Combined Cycle", "SOURCE": "EIA-860, EIA-860M and EIA-923", "PERIOD": 201810, "LATITUDE": 39.871300000000005, "LONGITUDE": -75.15574, "EDC": "Public Service Electric & Gas Co.", "GRIDSUPPLY": "Y", "DMR_LINK": "https://www13.state.nj.us/DataMiner/SearchSite.aspx?PV=15834", "GLOBALID": "{D5EC741B-D919-4F87-947C-9895517691EE}"}}, {"type": "Feature", "id": 39, "geometry": {"type": "Point", "coordinates": [-75.25651179387133, 39.841198039746416]}, "properties": {"OBJECTID": 39, "PLANT_CODE": 50628, "PLANT_NAME": "Paulsboro Refinery", "UTILITY_NAME": "Paulsboro Refining Company - LLC", "SITE_ID": 14376, "AIR_PI": 55829, "CITY": "Paulsboro", "COUNTY": "Gloucester", "STATENAME": "New Jersey", "STREET_ADD": "800 Billingsport Road", "PRIMSOURCE": "Natural Gas", "INSTALL_MW": 78.5, "TOTAL_MW": 60, "SOURCE_DES": "Natural Gas = 25 MW, Other = 23.4 MW,Petroleum = 11.6 MW", "TECHNICAL": "Natural Gas Fired Combustion Turbine; Other Gases; Petroleum Coke", "SOURCE": "EIA-860, EIA-860M and EIA-923", "PERIOD": 201810, "LATITUDE": 39.84119, "LONGITUDE": -75.25650999999999, "EDC": "Atlantic City Electric", "GRIDSUPPLY": "N", "DMR_LINK": "https://www13.state.nj.us/DataMiner/SearchSite.aspx?PV=14376", "GLOBALID": "{01763C38-C105-4DB8-B5CA-F1003C00C4E0}"}}, {"type": "Feature", "id": 40, "geometry": {"type": "Point", "coordinates": [-74.32716153630253, 40.460728195993035]}, "properties": {"OBJECTID": 40, "PLANT_CODE": 50799, "PLANT_NAME": "Parlin Power Plant", "UTILITY_NAME": "GE Energy Financial Services", "SITE_ID": 14549, "AIR_PI": 18061, "CITY": "Parlin", "COUNTY": "Middlesex", "STATENAME": "New Jersey", "STREET_ADD": "790 Washington Road", "PRIMSOURCE": "Natural Gas", "INSTALL_MW": 135, "TOTAL_MW": 115, "SOURCE_DES": "Natural Gas = 114.6 MW", "TECHNICAL": "Natural Gas Fired Combined Cycle", "SOURCE": "EIA-860, EIA-860M and EIA-923", "PERIOD": 201810, "LATITUDE": 40.460719999999995, "LONGITUDE": -74.32715999999999, "EDC": "Jersey Central Power & Light", "GRIDSUPPLY": "Y", "DMR_LINK": "https://www13.state.nj.us/DataMiner/SearchSite.aspx?PV=14549", "GLOBALID": "{819CA61C-7697-40AA-87F6-9A0CFFEF50FE}"}}, {"type": "Feature", "id": 41, "geometry": {"type": "Point", "coordinates": [-74.13045149996886, 40.90534828986995]}, "properties": {"OBJECTID": 41, "PLANT_CODE": 50852, "PLANT_NAME": "Elmwood Energy Holdings LLC", "UTILITY_NAME": "Morris Energy Operations Company, LLC", "SITE_ID": 15980, "AIR_PI": 2624, "CITY": "Elmwood Park", "COUNTY": "Bergen", "STATENAME": "New Jersey", "STREET_ADD": "15 River Road", "PRIMSOURCE": "Natural Gas", "INSTALL_MW": 83, "TOTAL_MW": 70, "SOURCE_DES": "Natural Gas = 70 MW", "TECHNICAL": "Natural Gas Fired Combined Cycle", "SOURCE": "EIA-860, EIA-860M and EIA-923", "PERIOD": 201810, "LATITUDE": 40.905339999999995, "LONGITUDE": -74.13045, "EDC": "Public Service Electric & Gas Co.", "GRIDSUPPLY": "Y", "DMR_LINK": "https://www13.state.nj.us/DataMiner/SearchSite.aspx?PV=15980", "GLOBALID": "{A1CA39DF-83BD-4592-AFC2-B4714B84D538}"}}, {"type": "Feature", "id": 42, "geometry": {"type": "Point", "coordinates": [-75.13810175785036, 39.87330805061189]}, "properties": {"OBJECTID": 42, "PLANT_CODE": 50885, "PLANT_NAME": "Wheelabrator Gloucester LP", "UTILITY_NAME": "Wheelabrator Environmental Systems", "SITE_ID": 15833, "AIR_PI": 55793, "CITY": "Westville", "COUNTY": "Gloucester", "STATENAME": "New Jersey", "STREET_ADD": "600 US RT 130", "PRIMSOURCE": "Biomass", "INSTALL_MW": 14, "TOTAL_MW": 12, "SOURCE_DES": "Biomass = 12 MW", "TECHNICAL": "Municipal Solid Waste", "SOURCE": "EIA-860, EIA-860M and EIA-923", "PERIOD": 201810, "LATITUDE": 39.8733, "LONGITUDE": -75.13810000000001, "EDC": "Public Service Electric & Gas Co.", "GRIDSUPPLY": "Y", "DMR_LINK": "https://www13.state.nj.us/DataMiner/SearchSite.aspx?PV=15833", "GLOBALID": "{51CAD7E3-18B0-460D-945D-5C328E967384}"}}, {"type": "Feature", "id": 43, "geometry": {"type": "Point", "coordinates": [-74.26637152497997, 40.60126822566499]}, "properties": {"OBJECTID": 43, "PLANT_CODE": 50960, "PLANT_NAME": "Union County Resource Recovery", "UTILITY_NAME": "Covanta Union Operations LLC", "SITE_ID": 14695, "AIR_PI": 41814, "CITY": "Rahway", "COUNTY": "Union", "STATENAME": "New Jersey", "STREET_ADD": "1499 Route 1 North", "PRIMSOURCE": "Biomass", "INSTALL_MW": 45, "TOTAL_MW": 38, "SOURCE_DES": "Biomass = 37.5 MW", "TECHNICAL": "Municipal Solid Waste", "SOURCE": "EIA-860, EIA-860M and EIA-923", "PERIOD": 201810, "LATITUDE": 40.601259999999996, "LONGITUDE": -74.26637, "EDC": "Public Service Electric & Gas Co.", "GRIDSUPPLY": "Y", "DMR_LINK": "https://www13.state.nj.us/DataMiner/SearchSite.aspx?PV=14695", "GLOBALID": "{A900674B-C051-45F0-BA9A-6616EB2C6416}"}}, {"type": "Feature", "id": 44, "geometry": {"type": "Point", "coordinates": [-74.18099151669212, 40.91532828988883]}, "properties": {"OBJECTID": 44, "PLANT_CODE": 52068, "PLANT_NAME": "Great Falls Hydro Project", "UTILITY_NAME": "Eagle Creek RE LLC", "SITE_ID": 60814, "AIR_PI": 0, "CITY": "Paterson", "COUNTY": "Passaic", "STATENAME": "New Jersey", "STREET_ADD": "72 McBride Ave", "PRIMSOURCE": "Hydroelectric", "INSTALL_MW": 12.3, "TOTAL_MW": 10, "SOURCE_DES": "Hydroelectric = 9.9 MW", "TECHNICAL": "Conventional Hydroelectric", "SOURCE": "EIA-860, EIA-860M and EIA-923", "PERIOD": 201810, "LATITUDE": 40.91532, "LONGITUDE": -74.18099, "EDC": "Public Service Electric & Gas Co.", "GRIDSUPPLY": "Y", "DMR_LINK": "https://www13.state.nj.us/DataMiner/SearchSite.aspx?PV=60814", "GLOBALID": "{18D03583-B366-4A4B-A15F-B08247C9E06D}"}}, {"type": "Feature", "id": 45, "geometry": {"type": "Point", "coordinates": [-74.17886145533384, 39.90631809043075]}, "properties": {"OBJECTID": 45, "PLANT_CODE": 54569, "PLANT_NAME": "Bayville Central Facility", "UTILITY_NAME": "Ocean County Utilities Auth", "SITE_ID": 14575, "AIR_PI": 78909, "CITY": "Bayville", "COUNTY": "Ocean", "STATENAME": "New Jersey", "STREET_ADD": "501 Hickory Lane", "PRIMSOURCE": "Petroleum", "INSTALL_MW": 7.1000000000000005, "TOTAL_MW": 7, "SOURCE_DES": "Biomass = 0.9 MW, Petroleum = 6 MW,Solar = 0.2 MW", "TECHNICAL": "Other Waste Biomass; Petroleum Liquids; Solar Photovoltaic", "SOURCE": "EIA-860, EIA-860M and EIA-923", "PERIOD": 201810, "LATITUDE": 39.90631, "LONGITUDE": -74.17886, "EDC": "Jersey Central Power & Light", "GRIDSUPPLY": "N", "DMR_LINK": "https://www13.state.nj.us/DataMiner/SearchSite.aspx?PV=14575", "GLOBALID": "{787C5155-E2D3-48DA-8C48-B87635E89EEB}"}}, {"type": "Feature", "id": 46, "geometry": {"type": "Point", "coordinates": [-74.16859146123775, 40.0613081219565]}, "properties": {"OBJECTID": 46, "PLANT_CODE": 54640, "PLANT_NAME": "NAEA Lakewood LLC", "UTILITY_NAME": "Nautilus Power LLC", "SITE_ID": 14574, "AIR_PI": 78896, "CITY": "Lakewood", "COUNTY": "Ocean", "STATENAME": "New Jersey", "STREET_ADD": "123 Energy Way", "PRIMSOURCE": "Natural Gas", "INSTALL_MW": 236.8, "TOTAL_MW": 233, "SOURCE_DES": "Natural Gas = 233.1 MW", "TECHNICAL": "Natural Gas Fired Combined Cycle", "SOURCE": "EIA-860, EIA-860M and EIA-923", "PERIOD": 201810, "LATITUDE": 40.0613, "LONGITUDE": -74.16859, "EDC": "Jersey Central Power & Light", "GRIDSUPPLY": "Y", "DMR_LINK": "https://www13.state.nj.us/DataMiner/SearchSite.aspx?PV=14574", "GLOBALID": "{00789780-830C-438E-A4D2-75599A4EB236}"}}, {"type": "Feature", "id": 47, "geometry": {"type": "Point", "coordinates": [-74.93597174063008, 40.627828206919396]}, "properties": {"OBJECTID": 47, "PLANT_CODE": 54707, "PLANT_NAME": "Hunterdon Cogen Facility", "UTILITY_NAME": "Hunterdon Cogeneration LP", "SITE_ID": 14566, "AIR_PI": 80293, "CITY": "Clinton", "COUNTY": "Hunterdon", "STATENAME": "New Jersey", "STREET_ADD": "Route 513 Pittstown Road", "PRIMSOURCE": "Natural Gas", "INSTALL_MW": 4.1, "TOTAL_MW": 4, "SOURCE_DES": "Natural Gas = 4.1 MW", "TECHNICAL": "Natural Gas Fired Combustion Turbine", "SOURCE": "EIA-860, EIA-860M and EIA-923", "PERIOD": 201810, "LATITUDE": 40.62782, "LONGITUDE": -74.93597, "EDC": "Jersey Central Power & Light", "GRIDSUPPLY": "N", "DMR_LINK": "https://www13.state.nj.us/DataMiner/SearchSite.aspx?PV=14566", "GLOBALID": "{120EC0C1-A918-4432-B296-BC1FB1712AF0}"}}, {"type": "Feature", "id": 48, "geometry": {"type": "Point", "coordinates": [-74.44579157403581, 40.47513819449259]}, "properties": {"OBJECTID": 48, "PLANT_CODE": 54829, "PLANT_NAME": "Bristol Myers Squibb New Brunswick", "UTILITY_NAME": "Bristol-Myers Squibb Co", "SITE_ID": 5540, "AIR_PI": 17739, "CITY": "New Brunswick", "COUNTY": "Middlesex", "STATENAME": "New Jersey", "STREET_ADD": "PO BOX 191  One Squibb Drive", "PRIMSOURCE": "Natural Gas", "INSTALL_MW": 10.5, "TOTAL_MW": 9, "SOURCE_DES": "Natural Gas = 9.4 MW", "TECHNICAL": "Natural Gas Steam Turbine; Natural Gas Fired Combustion Turbine;", "SOURCE": "EIA-860, EIA-860M and EIA-923", "PERIOD": 201810, "LATITUDE": 40.47513, "LONGITUDE": -74.44579, "EDC": "Public Service Electric & Gas Co.", "GRIDSUPPLY": "N", "DMR_LINK": "https://www13.state.nj.us/DataMiner/SearchSite.aspx?PV=5540", "GLOBALID": "{28C8B9D9-7515-43BA-A1BB-28001A767695}"}}, {"type": "Feature", "id": 49, "geometry": {"type": "Point", "coordinates": [-74.25017148477171, 40.02463811223376]}, "properties": {"OBJECTID": 49, "PLANT_CODE": 54980, "PLANT_NAME": "Ocean County Landfill", "UTILITY_NAME": "LES Project Holdings LLC", "SITE_ID": 15805, "AIR_PI": 78931, "CITY": "Manchester", "COUNTY": "Ocean", "STATENAME": "New Jersey", "STREET_ADD": "2498 Route 70", "PRIMSOURCE": "Biomass", "INSTALL_MW": 14.4, "TOTAL_MW": 14, "SOURCE_DES": "Biomass = 13.8 MW", "TECHNICAL": "Landfill Gas", "SOURCE": "EIA-860, EIA-860M and EIA-923", "PERIOD": 201810, "LATITUDE": 40.024629999999995, "LONGITUDE": -74.25017, "EDC": "Jersey Central Power & Light", "GRIDSUPPLY": "Y", "DMR_LINK": "https://www13.state.nj.us/DataMiner/SearchSite.aspx?PV=15805", "GLOBALID": "{4064A168-5518-448A-AAA6-4F08C63BA629}"}}, {"type": "Feature", "id": 50, "geometry": {"type": "Point", "coordinates": [-74.34888154241, 40.44867819263596]}, "properties": {"OBJECTID": 50, "PLANT_CODE": 55239, "PLANT_NAME": "Red Oak Power LLC", "UTILITY_NAME": "Red Oak Operating Services LLC", "SITE_ID": 18747, "AIR_PI": 18195, "CITY": "Sayerville", "COUNTY": "Middlesex", "STATENAME": "New Jersey", "STREET_ADD": "832 Red Oak Lane", "PRIMSOURCE": "Natural Gas", "INSTALL_MW": 821.1, "TOTAL_MW": 766, "SOURCE_DES": "Natural Gas = 765.9 MW", "TECHNICAL": "Natural Gas Fired Combined Cycle", "SOURCE": "EIA-860, EIA-860M and EIA-923", "PERIOD": 201810, "LATITUDE": 40.44867, "LONGITUDE": -74.34888, "EDC": "Jersey Central Power & Light", "GRIDSUPPLY": "Y", "DMR_LINK": "https://www13.state.nj.us/DataMiner/SearchSite.aspx?PV=18747", "GLOBALID": "{A6CB297F-74FF-4F23-BA2E-59F7545E0251}"}}, {"type": "Feature", "id": 51, "geometry": {"type": "Point", "coordinates": [-74.11742145666025, 40.24683816086196]}, "properties": {"OBJECTID": 51, "PLANT_CODE": 55618, "PLANT_NAME": "Monmouth Landfill Gas to Energy", "UTILITY_NAME": "Monmouth Energy Inc", "SITE_ID": 15942, "AIR_PI": 21351, "CITY": "Tinton Falls", "COUNTY": "Monmouth", "STATENAME": "New Jersey", "STREET_ADD": "6000 Asbury Ave", "PRIMSOURCE": "Biomass", "INSTALL_MW": 9.8, "TOTAL_MW": 7, "SOURCE_DES": "Biomass = 6.6 MW", "TECHNICAL": "Landfill Gas", "SOURCE": "EIA-860, EIA-860M and EIA-923", "PERIOD": 201810, "LATITUDE": 40.246829999999996, "LONGITUDE": -74.11742, "EDC": "Jersey Central Power & Light", "GRIDSUPPLY": "Y", "DMR_LINK": "https://www13.state.nj.us/DataMiner/SearchSite.aspx?PV=15942", "GLOBALID": "{735E5498-7EC2-4C8A-89EA-1FFEE7E5895A}"}}, {"type": "Feature", "id": 52, "geometry": {"type": "Point", "coordinates": [-74.16719146123324, 40.063298122259965]}, "properties": {"OBJECTID": 52, "PLANT_CODE": 55938, "PLANT_NAME": "NAEA Ocean Peaking Power LLC", "UTILITY_NAME": "Nautilus Power LLC", "SITE_ID": 168501, "AIR_PI": 78896, "CITY": "Lakewood", "COUNTY": "Ocean", "STATENAME": "New Jersey", "STREET_ADD": "123 Energy Way", "PRIMSOURCE": "Natural Gas", "INSTALL_MW": 383, "TOTAL_MW": 326, "SOURCE_DES": "Natural Gas = 325.6 MW", "TECHNICAL": "Natural Gas Fired Combustion Turbine", "SOURCE": "EIA-860, EIA-860M and EIA-923", "PERIOD": 201810, "LATITUDE": 40.063289999999995, "LONGITUDE": -74.16718999999999, "EDC": "Jersey Central Power & Light", "GRIDSUPPLY": "Y", "DMR_LINK": "https://www13.state.nj.us/DataMiner/SearchSite.aspx?PV=168501", "GLOBALID": "{4518ACD0-A539-462E-A1F7-ABA610E31D74}"}}, {"type": "Feature", "id": 53, "geometry": {"type": "Point", "coordinates": [-74.31491153401403, 40.49089820218673]}, "properties": {"OBJECTID": 53, "PLANT_CODE": 56119, "PLANT_NAME": "Middlesex Generating Facility", "UTILITY_NAME": "Middlesex Generating Company LLC", "SITE_ID": 5280, "AIR_PI": 18348, "CITY": "Sayerville", "COUNTY": "Middlesex", "STATENAME": "New Jersey", "STREET_ADD": "East Main Street Extension", "PRIMSOURCE": "Biomass", "INSTALL_MW": 22.5, "TOTAL_MW": 19, "SOURCE_DES": "Biomass = 18.8 MW", "TECHNICAL": "Landfill Gas", "SOURCE": "EIA-860, EIA-860M and EIA-923", "PERIOD": 201810, "LATITUDE": 40.49089, "LONGITUDE": -74.31491, "EDC": "Jersey Central Power & Light", "GRIDSUPPLY": "Y", "DMR_LINK": "https://www13.state.nj.us/DataMiner/SearchSite.aspx?PV=5280", "GLOBALID": "{82BB95C7-D291-4BEA-A1E6-79163A315773}"}}, {"type": "Feature", "id": 54, "geometry": {"type": "Point", "coordinates": [-74.25469149942589, 40.244838155153815]}, "properties": {"OBJECTID": 54, "PLANT_CODE": 56169, "PLANT_NAME": "NEO Freehold Gen LLC", "UTILITY_NAME": "NEO Freehold Gen LLC", "SITE_ID": 4633, "AIR_PI": 20799, "CITY": "Freehold", "COUNTY": "Monmouth", "STATENAME": "New Jersey", "STREET_ADD": "235 Willowbrook Road", "PRIMSOURCE": "Natural Gas", "INSTALL_MW": 2.2, "TOTAL_MW": 2, "SOURCE_DES": "Natural Gas = 2.2 MW", "TECHNICAL": "Natural Gas Internal Combustion Engine", "SOURCE": "EIA-860, EIA-860M and EIA-923", "PERIOD": 201810, "LATITUDE": 40.24483, "LONGITUDE": -74.25469, "EDC": "Jersey Central Power & Light", "GRIDSUPPLY": "N", "DMR_LINK": "https://www13.state.nj.us/DataMiner/SearchSite.aspx?PV=4633", "GLOBALID": "{D79C2B16-E7A6-42DA-994C-849704F63880}"}}, {"type": "Feature", "id": 55, "geometry": {"type": "Point", "coordinates": [-74.44773151093341, 39.381067976068785]}, "properties": {"OBJECTID": 55, "PLANT_CODE": 56300, "PLANT_NAME": "Jersey-Atlantic Wind Farm", "UTILITY_NAME": "Leeward Asset Management, LLC", "SITE_ID": 143132, "AIR_PI": 70508, "CITY": "Atlantic City", "COUNTY": "Atlantic", "STATENAME": "New Jersey", "STREET_ADD": "1801 Absecon Blvd.", "PRIMSOURCE": "Wind", "INSTALL_MW": 7.5, "TOTAL_MW": 8, "SOURCE_DES": "Wind = 7.5 MW", "TECHNICAL": "Onshore Wind Turbine", "SOURCE": "EIA-860, EIA-860M and EIA-923", "PERIOD": 201810, "LATITUDE": 39.38106, "LONGITUDE": -74.44772999999999, "EDC": "Atlantic City Electric", "GRIDSUPPLY": "N", "DMR_LINK": "https://www13.state.nj.us/DataMiner/SearchSite.aspx?PV=143132", "GLOBALID": "{D2FABD52-0FE3-4AB0-80D8-CB306DB6C50D}"}}, {"type": "Feature", "id": 56, "geometry": {"type": "Point", "coordinates": [-75.04000173362087, 39.989408077379515]}, "properties": {"OBJECTID": 56, "PLANT_CODE": 56511, "PLANT_NAME": "Pennsauken Landfill", "UTILITY_NAME": "EPP Renewable Energy", "SITE_ID": 14673, "AIR_PI": 51612, "CITY": "Pennsauken", "COUNTY": "Camden", "STATENAME": "New Jersey", "STREET_ADD": "9600 River Road", "PRIMSOURCE": "Biomass", "INSTALL_MW": 1.8, "TOTAL_MW": 2, "SOURCE_DES": "Biomass = 1.8 MW", "TECHNICAL": "Landfill Gas", "SOURCE": "EIA-860, EIA-860M and EIA-923", "PERIOD": 201810, "LATITUDE": 39.9894, "LONGITUDE": -75.04, "EDC": "Public Service Electric & Gas Co.", "GRIDSUPPLY": "Y", "DMR_LINK": "https://www13.state.nj.us/DataMiner/SearchSite.aspx?PV=14673", "GLOBALID": "{2E33F03F-9D4A-407B-A23C-C3D4B40105EA}"}}, {"type": "Feature", "id": 57, "geometry": {"type": "Point", "coordinates": [-74.01313146631199, 40.958388303696026]}, "properties": {"OBJECTID": 57, "PLANT_CODE": 56701, "PLANT_NAME": "Haworth Water Treatment Plant", "UTILITY_NAME": "EPP Renewable Energy", "SITE_ID": 45926, "AIR_PI": 3000, "CITY": "Haworth", "COUNTY": "Bergen", "STATENAME": "New Jersey", "STREET_ADD": "200 Lakeshore Drive", "PRIMSOURCE": "Natural Gas", "INSTALL_MW": 16, "TOTAL_MW": 16, "SOURCE_DES": "Natural Gas = 8 MW, Petroleum = 7.8 MW", "TECHNICAL": "Natural Gas Internal Combustion Engine; Petroleum Liquids;", "SOURCE": "EIA-860, EIA-860M and EIA-923", "PERIOD": 201810, "LATITUDE": 40.95838, "LONGITUDE": -74.01312999999999, "EDC": "Public Service Electric & Gas Co.", "GRIDSUPPLY": "Y", "DMR_LINK": "https://www13.state.nj.us/DataMiner/SearchSite.aspx?PV=45926", "GLOBALID": "{DA4B9C21-CA3B-48CA-8C8C-4118275F7FAC}"}}, {"type": "Feature", "id": 58, "geometry": {"type": "Point", "coordinates": [-75.09635172019681, 39.45346796807115]}, "properties": {"OBJECTID": 58, "PLANT_CODE": 56884, "PLANT_NAME": "Cumberland County Solid Waste Complex", "UTILITY_NAME": "EPP Renewable Energy", "SITE_ID": 9475, "AIR_PI": 75697, "CITY": "Millville", "COUNTY": "Cumberland", "STATENAME": "New Jersey", "STREET_ADD": "169 Jesse Bridge Road", "PRIMSOURCE": "Biomass", "INSTALL_MW": 4.8, "TOTAL_MW": 5, "SOURCE_DES": "Biomass = 4.8 MW", "TECHNICAL": "Landfill Gas", "SOURCE": "EIA-860, EIA-860M and EIA-923", "PERIOD": 201810, "LATITUDE": 39.45346, "LONGITUDE": -75.09635, "EDC": "Atlantic City Electric", "GRIDSUPPLY": "Y", "DMR_LINK": "https://www13.state.nj.us/DataMiner/SearchSite.aspx?PV=9475", "GLOBALID": "{549B9032-7FE8-4273-AC29-7B7EDF65CE57}"}}, {"type": "Feature", "id": 59, "geometry": {"type": "Point", "coordinates": [-75.2214017826416, 39.84140804116814]}, "properties": {"OBJECTID": 59, "PLANT_CODE": 56963, "PLANT_NAME": "West Deptford Energy Station", "UTILITY_NAME": "West Deptford Energy LLC", "SITE_ID": 64901, "AIR_PI": 56078, "CITY": "West Deptford", "COUNTY": "Gloucester", "STATENAME": "New Jersey", "STREET_ADD": "3 Paradise Road", "PRIMSOURCE": "Natural Gas", "INSTALL_MW": 754.6, "TOTAL_MW": 728, "SOURCE_DES": "Natural Gas = 728 MW", "TECHNICAL": "Natural Gas Fired Combined Cycle", "SOURCE": "EIA-860, EIA-860M and EIA-923", "PERIOD": 201810, "LATITUDE": 39.8414, "LONGITUDE": -75.2214, "EDC": "Public Service Electric & Gas Co.", "GRIDSUPPLY": "Y", "DMR_LINK": "https://www13.state.nj.us/DataMiner/SearchSite.aspx?PV=64901", "GLOBALID": "{95DECF7E-7C12-44AE-A2F9-4EAFE342067D}"}}, {"type": "Feature", "id": 60, "geometry": {"type": "Point", "coordinates": [-74.09155147167586, 40.65283824191578]}, "properties": {"OBJECTID": 60, "PLANT_CODE": 56964, "PLANT_NAME": "Bayonne Energy Center", "UTILITY_NAME": "Bayonne Energy Center LLC", "SITE_ID": 379948, "AIR_PI": 12863, "CITY": "Bayonne", "COUNTY": "Hudson", "STATENAME": "New Jersey", "STREET_ADD": "401 Hook Rd", "PRIMSOURCE": "Natural Gas", "INSTALL_MW": 512, "TOTAL_MW": 473, "SOURCE_DES": "Natural Gas = 473.2 MW", "TECHNICAL": "Natural Gas Fired Combustion Turbine", "SOURCE": "EIA-860, EIA-860M and EIA-923", "PERIOD": 201810, "LATITUDE": 40.65283, "LONGITUDE": -74.09155, "EDC": "Public Service Electric & Gas Co.", "GRIDSUPPLY": "Y", "DMR_LINK": "https://www13.state.nj.us/DataMiner/SearchSite.aspx?PV=379948", "GLOBALID": "{7CACEC70-48B1-4141-80A7-CEA4CBBEBFAD}"}}, {"type": "Feature", "id": 61, "geometry": {"type": "Point", "coordinates": [-74.31920153725198, 40.51554820699283]}, "properties": {"OBJECTID": 61, "PLANT_CODE": 57839, "PLANT_NAME": "Woodbridge Energy Center", "UTILITY_NAME": "Woodbridge Energy Center", "SITE_ID": 483453, "AIR_PI": 18940, "CITY": "Keasbey", "COUNTY": "Middlesex", "STATENAME": "New Jersey", "STREET_ADD": "1070 Riverside Dr", "PRIMSOURCE": "Natural Gas", "INSTALL_MW": 795, "TOTAL_MW": 720, "SOURCE_DES": "Natural Gas = 719.6 MW", "TECHNICAL": "Natural Gas Fired Combined Cycle", "SOURCE": "EIA-860, EIA-860M and EIA-923", "PERIOD": 201810, "LATITUDE": 40.51554, "LONGITUDE": -74.31920000000001, "EDC": "Public Service Electric & Gas Co.", "GRIDSUPPLY": "Y", "DMR_LINK": "https://www13.state.nj.us/DataMiner/SearchSite.aspx?PV=483453", "GLOBALID": "{25F47739-8614-44DA-9330-5EE50703EC2E}"}}, {"type": "Feature", "id": 62, "geometry": {"type": "Point", "coordinates": [-75.37239181450794, 39.586017984318715]}, "properties": {"OBJECTID": 62, "PLANT_CODE": 57843, "PLANT_NAME": "SC Landfill Energy LLC", "UTILITY_NAME": "SC Landfill Energy LLC", "SITE_ID": 36888, "AIR_PI": 65582, "CITY": "Alloway", "COUNTY": "Salem", "STATENAME": "New Jersey", "STREET_ADD": "52 McKillip Road", "PRIMSOURCE": "Biomass", "INSTALL_MW": 1.9000000000000001, "TOTAL_MW": 2, "SOURCE_DES": "Biomass = 1.8 MW", "TECHNICAL": "Landfill Gas", "SOURCE": "EIA-860, EIA-860M and EIA-923", "PERIOD": 201810, "LATITUDE": 39.58601, "LONGITUDE": -75.37239, "EDC": "Atlantic City Electric", "GRIDSUPPLY": "Y", "DMR_LINK": "https://www13.state.nj.us/DataMiner/SearchSite.aspx?PV=36888", "GLOBALID": "{B378C5C7-6B8D-44BB-820A-C75467C7D62F}"}}, {"type": "Feature", "id": 63, "geometry": {"type": "Point", "coordinates": [-74.54210154313562, 39.42282798145947]}, "properties": {"OBJECTID": 63, "PLANT_CODE": 57845, "PLANT_NAME": "AC Landfill Energy LLC", "UTILITY_NAME": "AC Landfill Energy LLC", "SITE_ID": 15742, "AIR_PI": 70718, "CITY": "Egg Harbor Township", "COUNTY": "Atlantic", "STATENAME": "New Jersey", "STREET_ADD": "6700 Delilah Road", "PRIMSOURCE": "Biomass", "INSTALL_MW": 5.4, "TOTAL_MW": 5, "SOURCE_DES": "Biomass = 5.1 MW", "TECHNICAL": "Landfill Gas", "SOURCE": "EIA-860, EIA-860M and EIA-923", "PERIOD": 201810, "LATITUDE": 39.42282, "LONGITUDE": -74.5421, "EDC": "Atlantic City Electric", "GRIDSUPPLY": "Y", "DMR_LINK": "https://www13.state.nj.us/DataMiner/SearchSite.aspx?PV=15742", "GLOBALID": "{2440CF67-B189-4857-83EE-404C3D22202E}"}}, {"type": "Feature", "id": 64, "geometry": {"type": "Point", "coordinates": [-74.67884168740602, 41.09361830627577]}, "properties": {"OBJECTID": 64, "PLANT_CODE": 57846, "PLANT_NAME": "SX Landfill Energy LLC", "UTILITY_NAME": "SX Landfill Energy LLC", "SITE_ID": 15800, "AIR_PI": 83590, "CITY": "Lafayette", "COUNTY": "Sussex", "STATENAME": "New Jersey", "STREET_ADD": "34 South Route 94", "PRIMSOURCE": "Biomass", "INSTALL_MW": 3.2, "TOTAL_MW": 3, "SOURCE_DES": "Biomass = 3 MW", "TECHNICAL": "Landfill Gas", "SOURCE": "EIA-860, EIA-860M and EIA-923", "PERIOD": 201810, "LATITUDE": 41.09361, "LONGITUDE": -74.67884, "EDC": "Jersey Central Power & Light", "GRIDSUPPLY": "Y", "DMR_LINK": "https://www13.state.nj.us/DataMiner/SearchSite.aspx?PV=15800", "GLOBALID": "{2A0F0C4C-4ADE-4164-897D-F2EA8029FB76}"}}, {"type": "Feature", "id": 65, "geometry": {"type": "Point", "coordinates": [-74.768651653431, 40.070718102475375]}, "properties": {"OBJECTID": 65, "PLANT_CODE": 57847, "PLANT_NAME": "BC Landfill Energy LLC", "UTILITY_NAME": "BC Landfill Energy LLC", "SITE_ID": 37400, "AIR_PI": 45949, "CITY": "Columbus", "COUNTY": "Burlington", "STATENAME": "New Jersey", "STREET_ADD": "21939 Route 543", "PRIMSOURCE": "Biomass", "INSTALL_MW": 7.5, "TOTAL_MW": 7, "SOURCE_DES": "Biomass = 7 MW", "TECHNICAL": "Landfill Gas", "SOURCE": "EIA-860, EIA-860M and EIA-923", "PERIOD": 201810, "LATITUDE": 40.07071, "LONGITUDE": -74.76865, "EDC": "Public Service Electric & Gas Co.", "GRIDSUPPLY": "Y", "DMR_LINK": "https://www13.state.nj.us/DataMiner/SearchSite.aspx?PV=37400", "GLOBALID": "{3021B47E-81B0-4831-88DF-390333F4D314}"}}, {"type": "Feature", "id": 66, "geometry": {"type": "Point", "coordinates": [-74.12687148653752, 40.707378251335314]}, "properties": {"OBJECTID": 66, "PLANT_CODE": 58079, "PLANT_NAME": "Newark Energy Center", "UTILITY_NAME": "Newark Energy Center, LLC", "SITE_ID": 552692, "AIR_PI": 8857, "CITY": "Newark", "COUNTY": "Essex", "STATENAME": "New Jersey", "STREET_ADD": "955 Delancy St.", "PRIMSOURCE": "Natural Gas", "INSTALL_MW": 735, "TOTAL_MW": 708, "SOURCE_DES": "Natural Gas = 708 MW", "TECHNICAL": "Natural Gas Fired Combined Cycle", "SOURCE": "EIA-860, EIA-860M and EIA-923", "PERIOD": 201810, "LATITUDE": 40.70737, "LONGITUDE": -74.12687, "EDC": "Public Service Electric & Gas Co.", "GRIDSUPPLY": "Y", "DMR_LINK": "https://www13.state.nj.us/DataMiner/SearchSite.aspx?PV=552692", "GLOBALID": "{343B5B04-95EB-459B-9257-6AE2BEB66E20}"}}, {"type": "Feature", "id": 67, "geometry": {"type": "Point", "coordinates": [-74.7732616660182, 40.26959814182762]}, "properties": {"OBJECTID": 67, "PLANT_CODE": 58165, "PLANT_NAME": "College of New Jersey", "UTILITY_NAME": "The College of New Jersey", "SITE_ID": 15874, "AIR_PI": 61008, "CITY": "Ewing", "COUNTY": "Mercer", "STATENAME": "New Jersey", "STREET_ADD": "2000 Pennington Road", "PRIMSOURCE": "Natural Gas", "INSTALL_MW": 6.2, "TOTAL_MW": 4, "SOURCE_DES": "Natural Gas = 4.2 MW", "TECHNICAL": "Natural Gas Internal Combustion Engine", "SOURCE": "EIA-860, EIA-860M and EIA-923", "PERIOD": 201810, "LATITUDE": 40.26959, "LONGITUDE": -74.77326, "EDC": "Public Service Electric & Gas Co.", "GRIDSUPPLY": "N", "DMR_LINK": "https://www13.state.nj.us/DataMiner/SearchSite.aspx?PV=15874", "GLOBALID": "{F27DD88A-D6AF-4CF7-A5C3-7B46B390133C}"}}, {"type": "Feature", "id": 68, "geometry": {"type": "Point", "coordinates": [-74.07861142546771, 39.94333810160483]}, "properties": {"OBJECTID": 68, "PLANT_CODE": 58172, "PLANT_NAME": "Seaside Heights Power Plant", "UTILITY_NAME": "Seaside Heights Municipal Utility", "SITE_ID": 16912, "AIR_PI": 78722, "CITY": "Seaside Heights", "COUNTY": "Ocean", "STATENAME": "New Jersey", "STREET_ADD": "Sherman Blvd", "PRIMSOURCE": "Petroleum", "INSTALL_MW": 6, "TOTAL_MW": 6, "SOURCE_DES": "Petroleum = 6 MW", "TECHNICAL": "Petroleum Liquids", "SOURCE": "EIA-860, EIA-860M and EIA-923", "PERIOD": 201810, "LATITUDE": 39.943329999999996, "LONGITUDE": -74.07861, "EDC": "Municipal-Seaside Heights", "GRIDSUPPLY": "Y", "DMR_LINK": "https://www13.state.nj.us/DataMiner/SearchSite.aspx?PV=16912", "GLOBALID": "{07C43425-8C28-4625-8EB4-8E1747A38A17}"}}, {"type": "Feature", "id": 69, "geometry": {"type": "Point", "coordinates": [-74.3938915579476, 40.465288193870244]}, "properties": {"OBJECTID": 69, "PLANT_CODE": 58208, "PLANT_NAME": "Cinnamon Bay Edgeboro Landfill", "UTILITY_NAME": "Cinnamon Bay LLC", "SITE_ID": 35510, "AIR_PI": 17901, "CITY": "East Brunswick", "COUNTY": "Middlesex", "STATENAME": "New Jersey", "STREET_ADD": "3 Brick Plant Road", "PRIMSOURCE": "Biomass", "INSTALL_MW": 9.6, "TOTAL_MW": 9, "SOURCE_DES": "Biomass = 9.1 MW", "TECHNICAL": "Landfill Gas", "SOURCE": "EIA-860, EIA-860M and EIA-923", "PERIOD": 201810, "LATITUDE": 40.46528, "LONGITUDE": -74.39389, "EDC": "Public Service Electric & Gas Co.", "GRIDSUPPLY": "Y", "DMR_LINK": "https://www13.state.nj.us/DataMiner/SearchSite.aspx?PV=35510", "GLOBALID": "{0CE00CAC-FF24-4235-91DB-97FABCF6E97E}"}}, {"type": "Feature", "id": 70, "geometry": {"type": "Point", "coordinates": [-75.01959169363074, 39.4245979651709]}, "properties": {"OBJECTID": 70, "PLANT_CODE": 58235, "PLANT_NAME": "Clayville", "UTILITY_NAME": "City of Vineland - (NJ)", "SITE_ID": 471061, "AIR_PI": 75746, "CITY": "Vineland", "COUNTY": "Cumberland", "STATENAME": "New Jersey", "STREET_ADD": "4087 S Lincoln Avenue", "PRIMSOURCE": "Natural Gas", "INSTALL_MW": 73, "TOTAL_MW": 55, "SOURCE_DES": "Natural Gas = 55 MW", "TECHNICAL": "Natural Gas Fired Combustion Turbine", "SOURCE": "EIA-860, EIA-860M and EIA-923", "PERIOD": 201810, "LATITUDE": 39.424589999999995, "LONGITUDE": -75.01959, "EDC": "Atlantic City Electric", "GRIDSUPPLY": "Y", "DMR_LINK": "https://www13.state.nj.us/DataMiner/SearchSite.aspx?PV=471061", "GLOBALID": "{CD4B4E53-AA03-42F1-A146-9772571B5F36}"}}, {"type": "Feature", "id": 71, "geometry": {"type": "Point", "coordinates": [-74.65722163431083, 40.34139816017306]}, "properties": {"OBJECTID": 71, "PLANT_CODE": 58584, "PLANT_NAME": "Princeton University Cogeneration", "UTILITY_NAME": "Trustees of Princeton University", "SITE_ID": 14623, "AIR_PI": 61014, "CITY": "Princeton", "COUNTY": "Mercer", "STATENAME": "New Jersey", "STREET_ADD": "Elm Drive", "PRIMSOURCE": "Natural Gas", "INSTALL_MW": 20, "TOTAL_MW": 20, "SOURCE_DES": "Natural Gas = 15.5 MW, Solar = 4.5 MW", "TECHNICAL": "Natural Gas Fired Combustion Turbine; Solar Photovoltaic;", "SOURCE": "EIA-860, EIA-860M and EIA-923", "PERIOD": 201810, "LATITUDE": 40.34139, "LONGITUDE": -74.65722, "EDC": "Public Service Electric & Gas Co.", "GRIDSUPPLY": "N", "DMR_LINK": "https://www13.state.nj.us/DataMiner/SearchSite.aspx?PV=14623", "GLOBALID": "{0B5D9EC3-8FB0-4B12-A1ED-4B93BB64EDE4}"}}, {"type": "Feature", "id": 72, "geometry": {"type": "Point", "coordinates": [-74.70778164918175, 40.32472815485747]}, "properties": {"OBJECTID": 72, "PLANT_CODE": 58947, "PLANT_NAME": "Bristol Myers Squibb Lawrenceville", "UTILITY_NAME": "Bristol-Myers Squibb Co", "SITE_ID": 15826, "AIR_PI": 61052, "CITY": "Lawrenceville", "COUNTY": "Mercer", "STATENAME": "New Jersey", "STREET_ADD": "Route 206 & Province Line road", "PRIMSOURCE": "Natural Gas", "INSTALL_MW": 5.6000000000000005, "TOTAL_MW": 5, "SOURCE_DES": "Natural Gas = 4 MW, Petroleum = 0.9 MW", "TECHNICAL": "Natural Gas Fired Combustion Turbine; Petroleum Liquids;", "SOURCE": "EIA-860, EIA-860M and EIA-923", "PERIOD": 201810, "LATITUDE": 40.32472, "LONGITUDE": -74.70778, "EDC": "Public Service Electric & Gas Co.", "GRIDSUPPLY": "N", "DMR_LINK": "https://www13.state.nj.us/DataMiner/SearchSite.aspx?PV=15826", "GLOBALID": "{7B33B163-F630-4132-B5F0-C72658B4B857}"}}, {"type": "Feature", "id": 73, "geometry": {"type": "Point", "coordinates": [-74.6516016469937, 40.577558207306225]}, "properties": {"OBJECTID": 73, "PLANT_CODE": 59055, "PLANT_NAME": "Rariton OMP", "UTILITY_NAME": "Janssen Pharmaceutical Co", "SITE_ID": 83183, "AIR_PI": 35004, "CITY": "Raritan", "COUNTY": "Somerset", "STATENAME": "New Jersey", "STREET_ADD": "1000 US Highway 202 N", "PRIMSOURCE": "Natural Gas", "INSTALL_MW": 5.4, "TOTAL_MW": 5, "SOURCE_DES": "Natural Gas = 3 MW, Solar = 2.4 MW", "TECHNICAL": "Natural Gas Internal Combustion Engine; Solar Photovoltaic;", "SOURCE": "EIA-860, EIA-860M and EIA-923", "PERIOD": 201810, "LATITUDE": 40.577549999999995, "LONGITUDE": -74.6516, "EDC": "Public Service Electric & Gas Co.", "GRIDSUPPLY": "N", "DMR_LINK": "https://www13.state.nj.us/DataMiner/SearchSite.aspx?PV=83183", "GLOBALID": "{1BDCE428-F4B4-4E7D-A9BC-ADFFFE21508F}"}}, {"type": "Feature", "id": 74, "geometry": {"type": "Point", "coordinates": [-74.78441160920308, 39.23587793501124]}, "properties": {"OBJECTID": 74, "PLANT_CODE": 59116, "PLANT_NAME": "Woodbine Landfill Plant", "UTILITY_NAME": "Cape May County Municipal", "SITE_ID": 9536, "AIR_PI": 73258, "CITY": "Woodbine", "COUNTY": "Cape May", "STATENAME": "New Jersey", "STREET_ADD": "2050 Route 610", "PRIMSOURCE": "Biomass", "INSTALL_MW": 3.2, "TOTAL_MW": 2, "SOURCE_DES": "Biomass = 2.1 MW", "TECHNICAL": "Landfill Gas", "SOURCE": "EIA-860, EIA-860M and EIA-923", "PERIOD": 201810, "LATITUDE": 39.23587, "LONGITUDE": -74.78441, "EDC": "Atlantic City Electric", "GRIDSUPPLY": "Y", "DMR_LINK": "https://www13.state.nj.us/DataMiner/SearchSite.aspx?PV=9536", "GLOBALID": "{55F068D4-0489-4621-8500-E848660DF9DB}"}}, {"type": "Feature", "id": 75, "geometry": {"type": "Point", "coordinates": [-74.11768148058782, 40.65284824042435]}, "properties": {"OBJECTID": 75, "PLANT_CODE": 59797, "PLANT_NAME": "Bayonne MUA- Leitner-Poma Wind Turbine", "UTILITY_NAME": "United Water, Inc.", "SITE_ID": 7625, "AIR_PI": 10616, "CITY": "Bayonne", "COUNTY": "Hudson", "STATENAME": "New Jersey", "STREET_ADD": "110 Oak Street", "PRIMSOURCE": "Wind", "INSTALL_MW": 1.5, "TOTAL_MW": 0, "SOURCE_DES": "Wind = 0.1 MW", "TECHNICAL": "Onshore Wind Turbine", "SOURCE": "EIA-860, EIA-860M and EIA-923", "PERIOD": 201810, "LATITUDE": 40.65284, "LONGITUDE": -74.11768, "EDC": "Public Service Electric & Gas Co.", "GRIDSUPPLY": "N", "DMR_LINK": "https://www13.state.nj.us/DataMiner/SearchSite.aspx?PV=7625", "GLOBALID": "{EF2CC2C8-381A-47FD-B3E4-F17CDA7BB2A7}"}}, {"type": "Feature", "id": 76, "geometry": {"type": "Point", "coordinates": [-74.7715016708041, 40.34828815798037]}, "properties": {"OBJECTID": 76, "PLANT_CODE": 60933, "PLANT_NAME": "Hopewell Cogeneration NJ", "UTILITY_NAME": "Bristol-Myers Squibb Co", "SITE_ID": 15824, "AIR_PI": 61053, "CITY": "Pennington", "COUNTY": "Mercer", "STATENAME": "New Jersey", "STREET_ADD": "311 Pennington Rocky Hill Road", "PRIMSOURCE": "Natural Gas", "INSTALL_MW": 4, "TOTAL_MW": 4, "SOURCE_DES": "Natural Gas = 4 MW", "TECHNICAL": "Natural Gas Internal Combustion Engine", "SOURCE": "EIA-860, EIA-860M and EIA-923", "PERIOD": 201810, "LATITUDE": 40.348279999999995, "LONGITUDE": -74.7715, "EDC": "Public Service Electric & Gas Co.", "GRIDSUPPLY": "N", "DMR_LINK": "https://www13.state.nj.us/DataMiner/SearchSite.aspx?PV=15824", "GLOBALID": "{D5FF9F67-1C96-4AE1-A439-553BFB9F13FA}"}}, {"type": "Feature", "id": 77, "geometry": {"type": "Point", "coordinates": [-74.62525929044824, 40.34082370835899]}, "properties": {"OBJECTID": 77, "PLANT_CODE": 61822, "PLANT_NAME": "Princeton Energy Center, LLC", "UTILITY_NAME": "Princeton Energy Center LLC", "SITE_ID": 601604, "AIR_PI": 18834, "CITY": "Plainsboro", "COUNTY": "Middlesex", "STATENAME": "New Jersey", "STREET_ADD": "3 Plainsboro Road", "PRIMSOURCE": "Petroleum", "INSTALL_MW": 10.8, "TOTAL_MW": 10, "SOURCE_DES": "Natural Gas = 4.4 MW, Petroleum = 6 MW,Solar = 0.2 MW", "TECHNICAL": "Natural Gas Fired Combustion Turbine; Petroleum Liquids; Solar Photovoltaic", "SOURCE": "EIA-860, EIA-860M and EIA-923", "PERIOD": 201810, "LATITUDE": 40.339838, "LONGITUDE": -74.62393, "EDC": "Public Service Electric & Gas Co.", "GRIDSUPPLY": "Y", "DMR_LINK": "https://www13.state.nj.us/DataMiner/SearchSite.aspx?PV=601604", "GLOBALID": "{A99597B7-A108-41D5-81FE-D81D452C977D}"}}]}